{"type":"FeatureCollection", "features": [
{"type":"Feature","geometry":{"type":"Polygon","coordinates":[[[24.999,-20.072],[24.668,-20.019],[24.311,-20.698],[24.394,-21.029],[24.849,-21.13],[26.22,-21.152],[26.317,-20.297],[25.616,-20.001],[24.999,-20.072]]]},"properties":{"NAME":"Makgadikgadi Pan","NAME_JA":"マカディカディ塩湖","FEATURECLA":"Desert","REGION":"Africa","SUBREGION":null,"SCALERANK":6}},
{"type":"Feature","geometry":{"type":"Polygon","coordinates":[[[16.801,-18.925],[17.083,-18.696],[16.536,-18.325],[15.831,-18.714],[15.866,-19.102],[16.801,-18.925]]]},"properties":{"NAME":"Etosha Pan","NAME_JA":"エトーシャ塩湖","FEATURECLA":"Desert","REGION":"Africa","SUBREGION":null,"SCALERANK":6}},
{"type":"Feature","geometry":{"type":"Polygon","coordinates":[[[16.483,28.506],[16.88,28.894],[16.995,29.423],[15.399,29.952],[14.772,29.282],[14.816,28.832],[15.204,28.497],[16.483,28.506]]]},"properties":{"NAME":"Jabal as Sawdä’","NAME_JA":"ジャバル・サウダ","FEATURECLA":"Desert","REGION":"Africa","SUBREGION":null,"SCALERANK":6}},
{"type":"Feature","geometry":{"type":"Polygon","coordinates":[[[-106.201,32.771],[-106.182,33.037],[-106.467,33.018],[-106.457,32.837],[-106.201,32.771]]]},"properties":{"NAME":"White Sands","NAME_JA":"ホワイトサンズ","FEATURECLA":"Desert","REGION":"North America","SUBREGION":null,"SCALERANK":6}},
{"type":"Feature","geometry":{"type":"Polygon","coordinates":[[[-118.737,41.022],[-119.135,41.008],[-118.954,40.805],[-118.737,41.022]]]},"properties":{"NAME":"Black Rock Desert","NAME_JA":"ブラックロック砂漠","FEATURECLA":"Desert","REGION":"North America","SUBREGION":null,"SCALERANK":6}},
{"type":"Feature","geometry":{"type":"Polygon","coordinates":[[[-66.732,-20.249],[-67.393,-19.239],[-68.054,-20.249],[-67.393,-21.26],[-66.732,-20.249]]]},"properties":{"NAME":"Salar de Uyuni","NAME_JA":"ウユニ","FEATURECLA":"Desert","REGION":"South America","SUBREGION":null,"SCALERANK":5}},
{"type":"Feature","geometry":{"type":"Polygon","coordinates":[[[58.872,21.248],[59.232,21.71],[59.074,22.277],[58.335,22.382],[58.204,22.087],[58.483,21.271],[58.872,21.248]]]},"properties":{"NAME":"Wahiba Sands","NAME_JA":"ワヒバ砂漠","FEATURECLA":"Desert","REGION":"Asia","SUBREGION":null,"SCALERANK":5}},
{"type":"Feature","geometry":{"type":"Polygon","coordinates":[[[42.919,12.818],[42.796,12.864],[42.734,13.019],[42.604,13.13],[42.567,13.145],[42.399,13.213],[42.335,13.397],[42.245,13.588],[41.806,13.884],[41.665,13.97],[41.564,14.102],[41.541,14.132],[41.169,14.615],[40.546,14.934],[40.305,14.974],[40.204,15.014],[39.847,15.036],[39.849,14.887],[39.85,14.752],[39.853,14.53],[39.93,14.251],[40.099,13.635],[40.13,13.458],[40.157,13.4],[40.825,11.722],[41.001,10.585],[41.504,10.664],[43.303,10.426],[43.631,11.035],[43.246,11.5],[43.043,11.588],[42.64,11.56],[43.048,11.829],[43.274,11.992],[43.343,12.042],[43.38,12.091],[43.343,12.371],[43.316,12.424],[43.131,12.66],[43.083,12.825],[42.97,12.808],[42.919,12.818]]]},"properties":{"NAME":"Danakil","NAME_JA":"ダナキル砂漠","FEATURECLA":"Desert","REGION":"Africa","SUBREGION":null,"SCALERANK":5}},
{"type":"Feature","geometry":{"type":"Polygon","coordinates":[[[34.994,29.618],[35.07,29.946],[35.113,30.13],[35.405,31.13],[35.317,31.387],[34.27,31.362],[34.249,31.343],[34.779,29.727],[34.898,29.578],[34.994,29.618]]]},"properties":{"NAME":"Negev Desert","NAME_JA":"ネゲヴ","FEATURECLA":"Desert","REGION":"Africa","SUBREGION":null,"SCALERANK":5}},
{"type":"Feature","geometry":{"type":"Polygon","coordinates":[[[40.217,1.357],[39.811,1.708],[39.528,2.579],[39.215,3.031],[38.868,3.2],[38.104,3.719],[37.826,4.089],[37.364,4.333],[36.662,4.671],[36.093,4.777],[35.85,4.606],[35.458,3.123],[35.988,2.078],[36.062,1.699],[36.08,1.364],[36.716,1.707],[37.535,1.748],[38.223,1.456],[38.21,0.914],[38.779,0.385],[39.784,0.491],[39.745,1.073],[40.223,1.183],[40.217,1.357]]]},"properties":{"NAME":"Chalbi Desert","NAME_JA":"チャルビ砂漠","FEATURECLA":"Desert","REGION":"Africa","SUBREGION":null,"SCALERANK":5}},
{"type":"Feature","geometry":{"type":"Polygon","coordinates":[[[35.478,24.155],[35.194,24.475],[34.565,25.691],[33.959,26.649],[33.893,27.049],[33.697,27.341],[33.559,27.701],[33.202,28.208],[32.898,28.565],[32.659,28.928],[32.632,28.992],[32.59,29.215],[32.538,29.294],[32.314,29.626],[32.555,30.083],[32.416,30.375],[32.273,30.622],[31.723,30.525],[31.671,30.49],[31.327,30.211],[31.3,30.176],[31.242,29.411],[31.042,28.992],[30.737,28.314],[30.737,28.296],[30.855,27.452],[31.258,27.161],[32.125,26.195],[32.664,26.14],[32.714,26.115],[32.733,25.892],[32.722,25.826],[32.551,25.628],[32.523,25.459],[32.872,25.077],[32.879,24.131],[33.02,23.196],[32.561,22.65],[31.52,22.12],[34.405,22.041],[35.908,22.041],[36.838,22.041],[35.955,22.701],[35.913,22.74],[35.846,22.786],[35.523,23.443],[35.498,23.794],[35.498,23.986],[35.478,24.155]]]},"properties":{"NAME":"Eastern Desert","NAME_JA":"東部砂漠","FEATURECLA":"Desert","REGION":"Africa","SUBREGION":null,"SCALERANK":5}},
{"type":"Feature","geometry":{"type":"Polygon","coordinates":[[[-12.127,16.776],[-12.277,17.058],[-12.356,17.834],[-12.647,18.901],[-12.947,19.483],[-13.776,19.889],[-14.736,18.899],[-14.835,18.792],[-15.716,17.861],[-16.06,17.331],[-16.468,16.408],[-16.475,16.244],[-16.202,16.555],[-15.081,16.67],[-14.367,16.661],[-13.944,16.282],[-13.494,16.167],[-12.762,16.308],[-12.189,16.582],[-12.127,16.776]]]},"properties":{"NAME":"Trarza","NAME_JA":"トラルザ","FEATURECLA":"Desert","REGION":"Africa","SUBREGION":null,"SCALERANK":5}},
{"type":"Feature","geometry":{"type":"Polygon","coordinates":[[[-13.557,20.068],[-13.124,19.616],[-12.162,19.554],[-11.854,19.96],[-12.076,20.303],[-12.127,20.533],[-11.377,21.009],[-11.368,21.283],[-10.751,21.75],[-12.003,21.477],[-12.436,21.221],[-13.097,21.212],[-13.557,20.068]]]},"properties":{"NAME":"Akchâr","NAME_JA":"アクチャール砂漠","FEATURECLA":"Desert","REGION":"Africa","SUBREGION":null,"SCALERANK":5}},
{"type":"Feature","geometry":{"type":"Polygon","coordinates":[[[7.095,28.894],[6.2,28.55],[6.456,28.294],[7.858,28.462],[8.634,28.682],[9.922,28.647],[11.897,28.92],[12.523,28.779],[12.982,28.453],[13.934,28.603],[13.829,29.37],[14.243,29.679],[14.102,30.04],[13.299,30.508],[13.194,31.019],[12.894,31.134],[12.065,30.878],[10.16,30.384],[8.969,29.793],[7.095,28.894]]]},"properties":{"NAME":"Hamada de Tinrhert","NAME_JA":"ハマーダ・デ・ティンラート砂漠","FEATURECLA":"Desert","REGION":"Africa","SUBREGION":null,"SCALERANK":5}},
{"type":"Feature","geometry":{"type":"Polygon","coordinates":[[[-3.193,28.581],[-3.775,28.581],[-4.145,28.263],[-5.032,27.752],[-4.763,27.509],[-3.656,27.544],[-2.743,27.006],[-1.367,28.078],[-1.641,28.373],[-2.329,28.514],[-2.972,28.431],[-3.193,28.581]]]},"properties":{"NAME":"‘Erg Iguidi","NAME_JA":"イギディ砂漠","FEATURECLA":"Desert","REGION":"Africa","SUBREGION":null,"SCALERANK":5}},
{"type":"Feature","geometry":{"type":"Polygon","coordinates":[[[143.132,-29.749],[142.984,-29.046],[142.319,-28.521],[141.527,-28.448],[140.536,-28.505],[140.15,-28.935],[140.098,-29.752],[140.599,-31.04],[141.03,-31.08],[141.875,-30.837],[142.63,-30.487],[143.042,-30.049],[143.132,-29.749]]]},"properties":{"NAME":"Strzelecki Desert","NAME_JA":"ストルゼレスキ砂漠","FEATURECLA":"Desert","REGION":"Oceania","SUBREGION":"Australasia","SCALERANK":5}},
{"type":"Feature","geometry":{"type":"Polygon","coordinates":[[[135.775,-24.948],[135.867,-25.84],[136.021,-26.292],[136.527,-26.749],[137.117,-26.908],[137.539,-26.827],[138.138,-26.42],[138.668,-25.86],[138.952,-25.197],[138.813,-24.482],[138.434,-23.977],[137.732,-23.719],[136.68,-23.858],[135.985,-24.054],[135.8,-24.421],[135.775,-24.948]]]},"properties":{"NAME":"Simpson Desert","NAME_JA":"シンプソン砂漠","FEATURECLA":"Desert","REGION":"Oceania","SUBREGION":"Australasia","SCALERANK":5}},
{"type":"Feature","geometry":{"type":"Polygon","coordinates":[[[131.823,-20.671],[132.49,-20.58],[133.03,-20.06],[133.046,-19.602],[132.806,-18.931],[132.285,-18.709],[130.967,-18.673],[130.475,-18.969],[130.253,-19.634],[130.306,-19.921],[130.742,-20.515],[131.823,-20.671]]]},"properties":{"NAME":"Tanami Desert","NAME_JA":"タナミ砂漠","FEATURECLA":"Desert","REGION":"Oceania","SUBREGION":"Australasia","SCALERANK":5}},
{"type":"Feature","geometry":{"type":"Polygon","coordinates":[[[66.005,30.262],[66.152,30.8],[65.834,31.376],[65.025,31.822],[64.979,32.235],[64.359,31.666],[64.022,30.655],[63.876,30.531],[63.667,30.44],[63.48,29.799],[63.822,29.637],[64.876,29.839],[65.292,29.702],[65.726,29.876],[66.005,30.262]]]},"properties":{"NAME":"Rigestan","NAME_JA":"レギスタン砂漠","FEATURECLA":"Desert","REGION":"Asia","SUBREGION":null,"SCALERANK":5}},
{"type":"Feature","geometry":{"type":"Polygon","coordinates":[[[64.979,32.235],[64.753,32.367],[64.276,32.08],[63.483,32.347],[62.989,32.371],[62.435,32.063],[61.517,31.956],[61.339,31.373],[61.804,30.951],[61.811,30.434],[62.428,30.171],[63.063,30.263],[63.352,30.46],[63.876,30.531],[64.022,30.655],[64.359,31.666],[64.979,32.235]]]},"properties":{"NAME":"Margo Desert","NAME_JA":"マーゴ砂漠","FEATURECLA":"Desert","REGION":"Asia","SUBREGION":null,"SCALERANK":5}},
{"type":"Feature","geometry":{"type":"Polygon","coordinates":[[[56.232,35.528],[54.776,35.211],[52.782,34.25],[53.37,33.913],[53.958,33.74],[54.527,34.222],[55.353,34.27],[55.217,33.828],[55.788,33.411],[56.381,34.355],[56.987,34.537],[56.908,34.909],[56.232,35.528]]]},"properties":{"NAME":"Kavir Desert","NAME_JA":"カヴィール砂漠","FEATURECLA":"Desert","REGION":"Asia","SUBREGION":null,"SCALERANK":5}},
{"type":"Feature","geometry":{"type":"Polygon","coordinates":[[[43.827,28.915],[43.37,29.276],[42.089,29.733],[41.365,29.866],[40.009,29.919],[39.631,29.693],[39.618,29.047],[39.895,28.852],[41.037,28.8],[42.033,28.585],[43.943,27.691],[44.685,27.643],[44.774,27.978],[43.827,28.915]]]},"properties":{"NAME":"An Nafud Desert","NAME_JA":"ネフド砂漠","FEATURECLA":"Desert","REGION":"Asia","SUBREGION":null,"SCALERANK":5}},
{"type":"Feature","geometry":{"type":"Polygon","coordinates":[[[-103.261,29.021],[-103.099,29.087],[-102.678,29.72],[-102.685,30.005],[-103.126,30.887],[-103.779,31.116],[-104.184,31.046],[-104.704,30.234],[-104.65,29.952],[-104.587,29.812],[-104.507,29.691],[-104.043,29.341],[-103.543,29.133],[-103.261,29.021]]]},"properties":{"NAME":"Big Bend","NAME_JA":"ビッグベンド","FEATURECLA":"Desert","REGION":"North America","SUBREGION":null,"SCALERANK":5}},
{"type":"Feature","geometry":{"type":"Polygon","coordinates":[[[13.984,23.619],[14.036,23.678],[14.662,25.097],[14.834,25.825],[13.564,26.116],[12.228,25.878],[11.924,25.229],[11.686,24.29],[12.387,23.443],[13.141,23.364],[13.984,23.619]]]},"properties":{"NAME":"Idhän Murzuq","NAME_JA":"ムルズク砂漠","FEATURECLA":"Desert","REGION":"Africa","SUBREGION":null,"SCALERANK":4}},
{"type":"Feature","geometry":{"type":"Polygon","coordinates":[[[-8.576,28.744],[-10.063,28.294],[-10.663,27.994],[-10.628,27.553],[-9.869,27.165],[-8.811,27.13],[-7.453,26.918],[-5.936,27.359],[-4.983,27.853],[-3.554,28.858],[-4.295,29.229],[-3.36,29.688],[-3.237,30.27],[-2.461,30.287],[-2.373,30.64],[-2.863,31.072],[-3.524,31.21],[-3.797,31.174],[-4.543,30.828],[-4.815,30.655],[-5.323,30.239],[-5.415,30.164],[-5.72,30.082],[-6.606,29.864],[-7.567,29.149],[-7.649,29.112],[-8.576,28.744]]]},"properties":{"NAME":"Hamada du Drâa","NAME_JA":"ハマーダ・デュ・ドラー砂漠","FEATURECLA":"Desert","REGION":"Africa","SUBREGION":null,"SCALERANK":4}},
{"type":"Feature","geometry":{"type":"Polygon","coordinates":[[[9.838,18.507],[9.838,17.79],[10.341,16.11],[10.821,15.294],[11.862,14.747],[13.185,14.359],[14.561,14.13],[15.266,13.865],[15.923,14.361],[16.236,14.994],[15.76,16.141],[15.745,16.88],[16.148,17.958],[16.342,18.84],[16.33,19.495],[16.168,20.099],[16.148,20.135],[15.989,20.427],[15.249,21.238],[13.837,21.38],[11.055,22.42],[10.75,22.891],[10.45,23.4],[10.171,23.826],[9.601,24.329],[8.866,24.88],[8.771,24.907],[8.29,24.722],[8.48,24.387],[8.634,24.112],[8.762,23.468],[8.8,23.155],[8.843,22.979],[9.229,22.209],[9.403,21.492],[9.441,21.335],[8.857,20.365],[8.833,19.695],[9.587,19.272],[9.838,18.575],[9.838,18.507]]]},"properties":{"NAME":"Ténéré","NAME_JA":"テネレ","FEATURECLA":"Desert","REGION":"Africa","SUBREGION":null,"SCALERANK":4}},
{"type":"Feature","geometry":{"type":"Polygon","coordinates":[[[9.403,21.492],[9.445,22.323],[9.216,23.17],[8.843,22.979],[8.59,22.801],[7.927,22.321],[6.833,21.85],[6.53,21.699],[5.979,21.923],[5.884,21.984],[5.362,22.319],[4.983,22.447],[4.515,22.605],[3.977,22.508],[3.219,22.032],[3.325,21.221],[3.951,20.903],[4.057,20.048],[5.168,19.73],[5.9,19.607],[7.258,19.836],[7.751,20.02],[7.917,20.082],[8.631,20.349],[8.651,20.357],[8.863,20.436],[9.403,21.492]]]},"properties":{"NAME":"Tassili oua-n-Ahaggar","NAME_JA":"タシリ・オアンホガール砂漠","FEATURECLA":"Desert","REGION":"Africa","SUBREGION":null,"SCALERANK":4}},
{"type":"Feature","geometry":{"type":"Polygon","coordinates":[[[10.75,22.891],[11.227,22.641],[11.545,23.382],[11.351,23.787],[11.007,23.955],[10.707,24.625],[10.557,25.842],[10.169,25.472],[9.366,26.169],[9.437,26.601],[8.907,26.451],[8.299,26.486],[7.435,26.689],[6.756,27.589],[6.465,27.156],[6.112,27.059],[5.891,27.439],[4.868,26.989],[4.92,26.73],[4.95,26.627],[5.247,26.389],[5.742,25.245],[6.147,25.232],[6.341,25.648],[6.703,25.648],[6.976,25.366],[7.02,24.634],[7.558,24.528],[8.228,24.687],[8.431,25.004],[8.771,24.907],[8.866,24.88],[9.419,24.59],[9.601,24.329],[10.171,23.826],[10.45,23.4],[10.75,22.891]]]},"properties":{"NAME":"Tassili-n-Ajjer","NAME_JA":"タッシリ・ナジェール","FEATURECLA":"Desert","REGION":"Africa","SUBREGION":null,"SCALERANK":4}},
{"type":"Feature","geometry":{"type":"Polygon","coordinates":[[[25.182,27.341],[26.158,28.444],[26.145,29.105],[25.237,29.474],[24.607,29.744],[23.491,30.312],[21.647,31.09],[20.754,31.271],[20.602,31.301],[19.702,30.442],[19.928,29.831],[20.324,29.489],[19.967,28.47],[19.464,28.682],[19.187,28.523],[18.988,27.928],[18.962,27.293],[19.134,26.711],[18.79,25.745],[20.589,24.819],[22.057,24.568],[23.049,26.023],[24.73,26.896],[25.182,27.341]]]},"properties":{"NAME":"Sarïr Kalanshiyu ar Ramli al Kabi","NAME_JA":"サリル・カランシユ・アル・ラムリ・アル・カビ","FEATURECLA":"Desert","REGION":"Africa","SUBREGION":null,"SCALERANK":4}},
{"type":"Feature","geometry":{"type":"Polygon","coordinates":[[[4.85,28.603],[5.574,28.576],[7.095,28.894],[8.444,29.688],[9.397,30.124],[9.741,30.494],[9.794,30.944],[9.463,32.108],[9.132,32.77],[8.55,32.849],[7.532,31.831],[6.486,30.878],[5.666,30.547],[4.489,29.727],[4.039,29.158],[4.753,28.92],[4.828,28.665],[4.85,28.603]]]},"properties":{"NAME":"Grand Erg Oriental","NAME_JA":"グランドエルグオリエンタル砂漠","FEATURECLA":"Desert","REGION":"Africa","SUBREGION":null,"SCALERANK":4}},
{"type":"Feature","geometry":{"type":"Polygon","coordinates":[[[3.007,31.209],[3.364,31.923],[2.941,32.307],[2.174,32.373],[1.79,32.029],[1.327,32.003],[1.314,31.394],[0.401,30.838],[-0.194,30.812],[-1.041,30.944],[-1.689,30.68],[-2.298,30.574],[-2.179,30.164],[-1.001,29.317],[-0.379,29.185],[0.176,29.635],[0.864,29.82],[1.777,29.833],[2.968,30.375],[3.007,31.209]]]},"properties":{"NAME":"Grand Erg Occidental","NAME_JA":"グランデルグオクシデンタル砂漠","FEATURECLA":"Desert","REGION":"Africa","SUBREGION":null,"SCALERANK":4}},
{"type":"Feature","geometry":{"type":"Polygon","coordinates":[[[-2.784,23.022],[-1.87,23.823],[-1.879,24.422],[-0.697,26.301],[-0.071,26.565],[-0.441,27.262],[-0.424,27.959],[-1.314,28.109],[-2.743,26.989],[-2.761,26.248],[-3.334,25.428],[-4.366,24.802],[-5.433,24.396],[-5.701,24.203],[-6.024,23.972],[-5.874,23.196],[-4.366,23.002],[-3.793,22.694],[-2.784,23.022]]]},"properties":{"NAME":"‘Erg Chech","NAME_JA":"チェク砂漠","FEATURECLA":"Desert","REGION":"Africa","SUBREGION":null,"SCALERANK":4}},
{"type":"Feature","geometry":{"type":"Polygon","coordinates":[[[-8.385,18.623],[-7.453,18.61],[-5.787,19.622],[-4.578,20.427],[-2.796,21.979],[-2.655,22.844],[-2.784,23.022],[-3.537,24.061],[-4.666,24.202],[-5.701,24.203],[-7.329,23.532],[-7.894,23.126],[-8.758,22.685],[-9.287,22.085],[-9.993,21.626],[-10.427,21.2],[-10.963,20.674],[-10.98,20.215],[-10.687,19.79],[-10.628,19.704],[-8.705,18.628],[-8.385,18.623]]]},"properties":{"NAME":"El Djouf","NAME_JA":"ジューフ砂漠","FEATURECLA":"Desert","REGION":"Africa","SUBREGION":null,"SCALERANK":4}},
{"type":"Feature","geometry":{"type":"Polygon","coordinates":[[[-104.264,33.908],[-105.134,33.627],[-105.224,32.752],[-104.469,32.162],[-104.884,31.897],[-105.084,32.322],[-105.619,32.387],[-105.834,32.612],[-105.959,33.647],[-106.389,33.552],[-106.484,34.232],[-106.939,34.167],[-107.009,33.837],[-107.554,33.262],[-107.619,32.637],[-108.169,32.847],[-108.394,32.502],[-108.799,32.822],[-110.104,33.451],[-110.724,33.242],[-110.424,32.947],[-110.694,32.462],[-111.019,31.362],[-110.196,31.143],[-109.829,31.087],[-109.509,30.407],[-109.229,30.752],[-108.704,30.73],[-108.244,30.467],[-108.019,30.116],[-106.504,29.477],[-106.264,28.507],[-106.441,27.072],[-106.401,27.038],[-105.963,27.129],[-104.914,25.992],[-105.351,25.587],[-105.339,25.561],[-104.184,24.367],[-103.824,24.252],[-103.484,24.842],[-103.619,25.147],[-103.234,25.612],[-102.499,25.465],[-101.602,25.289],[-101.144,25.312],[-100.539,25.822],[-100.492,26.913],[-100.606,27.06],[-100.899,27.022],[-101.339,27.497],[-101.869,27.812],[-102.619,28.422],[-102.509,29.242],[-101.766,29.695],[-101.32,29.649],[-100.784,29.547],[-100.674,30.152],[-101.349,30.862],[-101.879,31.102],[-102.07,31.244],[-103.319,31.642],[-103.34,31.668],[-103.744,32.252],[-103.929,33.322],[-104.12,33.623],[-104.264,33.908]]]},"properties":{"NAME":"CHIHUAHUAN DESERT","NAME_JA":"チワワ砂漠","FEATURECLA":"Desert","REGION":"North America","SUBREGION":null,"SCALERANK":4}},
{"type":"Feature","geometry":{"type":"Polygon","coordinates":[[[-110.724,33.242],[-111.044,33.202],[-112.677,34.45],[-113.594,34.997],[-114.386,34.559],[-114.644,34.612],[-115.315,34.197],[-115.514,33.752],[-115.919,33.692],[-116.519,34.037],[-116.474,33.077],[-115.964,32.502],[-115.755,31.915],[-115.284,31.027],[-115.214,30.602],[-114.65,30.238],[-114.644,30.425],[-114.685,30.621],[-114.761,30.959],[-114.845,31.08],[-114.882,31.156],[-114.872,31.296],[-114.848,31.538],[-114.264,31.554],[-114.081,31.51],[-113.759,31.558],[-113.084,31.207],[-113.047,31.179],[-113.043,31.087],[-113.09,30.907],[-113.044,30.633],[-112.825,30.3],[-112.759,30.126],[-112.653,29.87],[-112.415,29.536],[-111.941,28.823],[-111.907,28.752],[-111.747,28.564],[-111.472,28.384],[-111.281,28.114],[-111.049,27.945],[-110.759,27.915],[-110.53,27.864],[-109.924,27.689],[-110.505,28.79],[-110.431,29.017],[-110.299,29.427],[-110.539,29.892],[-110.509,30.267],[-110.752,30.721],[-111.189,31.132],[-111.019,31.362],[-110.694,32.462],[-110.424,32.947],[-110.724,33.242]]]},"properties":{"NAME":"SONORAN DESERT","NAME_JA":"ソノラ砂漠","FEATURECLA":"Desert","REGION":"North America","SUBREGION":null,"SCALERANK":4}},
{"type":"Feature","geometry":{"type":"Polygon","coordinates":[[[-113.266,39.988],[-113.091,40.368],[-113.002,41.135],[-113.324,41.475],[-113.916,41.169],[-114.039,40.785],[-113.585,39.908],[-113.266,39.988]]]},"properties":{"NAME":"Great Salt Lake Desert","NAME_JA":"グレートソルトレイク砂漠","FEATURECLA":"Desert","REGION":"North America","SUBREGION":null,"SCALERANK":4}},
{"type":"Feature","geometry":{"type":"Polygon","coordinates":[[[125.58,-25.787],[126.633,-25.524],[127.098,-24.737],[127.105,-24.238],[126.879,-23.805],[126.505,-23.556],[125.484,-23.146],[124.551,-23.056],[123.874,-23.266],[123.24,-23.684],[123.002,-24.013],[122.937,-24.721],[123.178,-25.403],[123.597,-25.629],[124.633,-25.809],[125.58,-25.787]]]},"properties":{"NAME":"Gibson Desert","NAME_JA":"ギブソン砂漠","FEATURECLA":"Desert","REGION":"Oceania","SUBREGION":"Australasia","SCALERANK":4}},
{"type":"Feature","geometry":{"type":"Polygon","coordinates":[[[110.202,37.247],[110.749,37.769],[110.688,38.47],[111.14,39.332],[111.253,39.971],[110.777,40.343],[107.963,40.915],[106.976,40.359],[106.099,40.338],[105.404,39.56],[105.257,39.292],[105.136,38.791],[105.318,37.838],[105.656,37.626],[107.539,37.519],[107.573,37.528],[108.572,37.67],[109.288,37.589],[110.202,37.247]]]},"properties":{"NAME":"Mu Us Desert","NAME_JA":"オルドス地方","FEATURECLA":"Desert","REGION":"Asia","SUBREGION":null,"SCALERANK":4}},
{"type":"Feature","geometry":{"type":"Polygon","coordinates":[[[83.963,37.312],[84.387,37.637],[87.326,38.947],[87.64,39.312],[87.547,39.88],[86.77,40.385],[84.874,40.584],[80.414,40.088],[79.517,39.464],[78.65,39.212],[78.328,38.968],[78.53,38.366],[79.572,37.88],[81.707,37.341],[83.573,37.238],[83.963,37.312]]]},"properties":{"NAME":"TAKLIMAKAN DESERT","NAME_JA":"タクラマカン砂漠","FEATURECLA":"Desert","REGION":"Asia","SUBREGION":null,"SCALERANK":4}},
{"type":"Feature","geometry":{"type":"Polygon","coordinates":[[[59.62,29.82],[59.884,30.058],[59.921,30.664],[58.828,32.001],[57.596,33.366],[56.916,33.647],[56.618,33.62],[56.345,33.191],[56.308,32.49],[56.43,31.972],[56.961,31.175],[58.186,30.15],[58.948,29.861],[59.62,29.82]]]},"properties":{"NAME":"LUT DESERT","NAME_JA":"ルート砂漠","FEATURECLA":"Desert","REGION":"Asia","SUBREGION":null,"SCALERANK":4}},
{"type":"Feature","geometry":{"type":"Polygon","coordinates":[[[14.931,-25.958],[14.965,-26.295],[16.303,-26.55],[16.792,-26.999],[17.189,-26.761],[15.959,-25.187],[15.639,-24.538],[15.609,-24.218],[15.48,-23.631],[15.451,-23.534],[15.417,-22.768],[15.038,-22],[14.464,-20.729],[13.974,-20.305],[13.775,-19.862],[13.269,-18.831],[12.857,-18.328],[12.398,-17.737],[12.258,-17.382],[12.161,-16.984],[12.271,-15.921],[12.612,-15.305],[12.77,-13.797],[13.405,-12.831],[13.377,-12.622],[13.368,-12.555],[13.022,-12.769],[12.986,-12.793],[12.898,-13.028],[12.55,-13.438],[12.504,-13.755],[12.281,-14.802],[11.99,-15.609],[11.968,-15.634],[11.797,-15.986],[11.83,-16.41],[11.82,-16.504],[11.743,-17.249],[11.722,-17.467],[11.778,-18.004],[11.79,-18.023],[11.951,-18.271],[12.002,-18.38],[12.329,-18.751],[12.458,-18.927],[12.814,-19.584],[13.138,-20.108],[13.155,-20.138],[13.294,-20.547],[13.451,-20.917],[13.839,-21.473],[14.322,-22.19],[14.463,-22.449],[14.478,-22.485],[14.526,-22.703],[14.52,-22.805],[14.496,-22.921],[14.437,-22.912],[14.428,-22.931],[14.413,-22.961],[14.424,-23.079],[14.497,-23.643],[14.526,-24.183],[14.695,-24.66],[14.832,-24.982],[14.864,-25.534],[14.931,-25.958]]]},"properties":{"NAME":"NAMIB DESERT","NAME_JA":"ナミブ砂漠","FEATURECLA":"Desert","REGION":"Africa","SUBREGION":null,"SCALERANK":3}},
{"type":"Feature","geometry":{"type":"Polygon","coordinates":[[[30.914,30.143],[29.968,30.151],[27.336,30.335],[25.985,30.271],[25.245,30.256],[25.238,29.575],[25.237,29.474],[25.182,27.341],[25.087,25.508],[25.153,24.793],[28.07,24.849],[28.976,24.872],[31.384,24.991],[32.541,25.015],[32.523,25.459],[32.551,25.628],[32.722,25.826],[32.733,25.892],[32.714,26.115],[32.664,26.14],[32.27,26.054],[32.014,26.221],[31.344,27.059],[30.841,27.456],[30.737,28.296],[30.737,28.314],[31.042,28.992],[31.242,29.411],[31.177,30.115],[31.128,30.12],[30.972,30.137],[30.914,30.143]]]},"properties":{"NAME":"WESTERN DESERT","NAME_JA":"西部砂漠","FEATURECLA":"Desert","REGION":"Africa","SUBREGION":null,"SCALERANK":3}},
{"type":"Feature","geometry":{"type":"Polygon","coordinates":[[[33.738,18.63],[34.202,17.878],[34.81,18.425],[35.983,19.333],[36.689,19.73],[37.209,19.792],[37.145,20.572],[37.086,21.3],[36.927,21.587],[36.883,21.769],[36.871,21.997],[36.87,22.016],[36.866,22.024],[36.844,22.024],[35.908,22.041],[34.44,22.068],[31.52,22.12],[31.146,21.631],[30.537,20.969],[30.365,20.308],[30.397,19.552],[30.497,18.906],[30.802,18.178],[31.396,18.057],[31.568,18.197],[32.019,18.813],[33.051,19.554],[33.577,19.06],[33.738,18.63]]]},"properties":{"NAME":"NUBIAN DESERT","NAME_JA":"ヌビア砂漠","FEATURECLA":"Desert","REGION":"Africa","SUBREGION":null,"SCALERANK":3}},
{"type":"Feature","geometry":{"type":"Polygon","coordinates":[[[121.333,-21.093],[121.54,-21.715],[121.858,-22.249],[122.571,-22.544],[123.678,-22.615],[125.808,-22.376],[127.151,-22.287],[127.952,-21.891],[128.162,-21.66],[128.443,-20.7],[128.294,-19.615],[128.018,-19.037],[127.194,-18.741],[125.763,-18.624],[124.331,-18.634],[122.844,-18.935],[122.276,-19.202],[121.777,-19.794],[121.39,-20.526],[121.333,-21.093]]]},"properties":{"NAME":"GREAT SANDY DESERT","NAME_JA":"グレートサンディ砂漠","FEATURECLA":"Desert","REGION":"Oceania","SUBREGION":"Australasia","SCALERANK":3}},
{"type":"Feature","geometry":{"type":"Polygon","coordinates":[[[25.179,31.541],[24.981,31.91],[24.671,31.972],[24.48,31.997],[24.039,32.037],[23.898,32.127],[23.286,32.214],[23.106,32.331],[23.063,32.36],[23.061,32.38],[23.052,32.475],[22.917,32.687],[22.8,32.724],[22.523,32.794],[22.011,32.909],[21.839,32.909],[21.71,32.941],[21.425,32.799],[21.319,32.778],[20.482,32.471],[20.469,32.465],[19.997,31.874],[20.112,30.964],[20.013,30.801],[19.881,30.651],[19.713,30.488],[19.124,30.266],[18.621,29.561],[18.181,28.351],[18.449,27.924],[18.496,27.85],[18.829,27.319],[18.618,26.684],[18.247,26.182],[18.353,24.938],[18.803,24.158],[19.224,24.078],[19.78,23.972],[20.007,23.139],[19.676,21.948],[19.411,20.718],[19.557,20.07],[20.526,17.926],[20.867,17.173],[20.761,10.638],[21.047,10.624],[21.191,10.617],[21.312,10.611],[21.681,10.38],[21.974,10.195],[22.062,10.139],[22.499,10.133],[22.796,10.151],[23.691,10.27],[24.266,10.145],[24.298,10.138],[24.859,10.016],[25.565,9.997],[25.637,10.016],[25.844,10.07],[25.976,10.105],[26.253,10.178],[26.577,9.885],[26.74,9.711],[26.795,9.724],[26.988,9.77],[27.19,9.817],[28.407,9.659],[29.167,9.412],[29.285,9.374],[29.401,9.349],[29.457,9.378],[29.583,9.444],[29.597,9.452],[29.8,9.559],[29.827,9.573],[30.494,9.498],[30.625,9.474],[30.83,9.448],[31.489,9.379],[31.589,9.465],[31.591,9.468],[32.297,10.082],[32.058,10.452],[32.614,11.008],[32.788,12.899],[32.776,13.071],[32.744,13.143],[32.587,13.493],[32.404,13.9],[32.155,14.455],[32.171,14.638],[32.334,14.868],[32.427,15],[32.431,15.018],[32.473,15.375],[32.502,15.623],[32.588,16.352],[33.699,16.882],[33.99,17.649],[33.738,18.63],[33.577,19.06],[33.011,19.501],[31.568,18.197],[31.396,18.057],[30.749,18.152],[30.458,18.866],[30.345,19.539],[30.325,20.784],[31.04,21.538],[31.635,22.636],[32.349,22.676],[32.826,23.39],[32.541,25.015],[32.31,25.454],[32.495,25.864],[32.072,25.904],[30.696,27.439],[30.603,28.603],[31.066,29.449],[30.961,30.074],[30.914,30.143],[30.741,30.42],[30.703,30.443],[29.968,30.772],[29.072,30.83],[29.012,30.838],[28.816,30.895],[27.968,31.097],[27.62,31.192],[27.54,31.213],[26.457,31.512],[25.893,31.621],[25.382,31.513],[25.225,31.534],[25.179,31.541]]]},"properties":{"NAME":"LIBYAN DESERT","NAME_JA":"リビア砂漠","FEATURECLA":"Desert","REGION":"Africa","SUBREGION":null,"SCALERANK":3}},
{"type":"Feature","geometry":{"type":"Polygon","coordinates":[[[125.129,-26.591],[124.514,-26.762],[123.906,-27.537],[123.772,-28.013],[123.863,-28.924],[124.349,-29.403],[124.976,-29.612],[125.986,-29.622],[127.298,-29.748],[129.167,-29.765],[130.068,-29.605],[130.961,-29.6],[131.786,-29.41],[132.243,-29.067],[132.357,-28.565],[132.198,-27.741],[131.824,-27.351],[130.593,-26.917],[128.27,-26.861],[125.129,-26.591]]]},"properties":{"NAME":"GREAT VICTORIA DESERT","NAME_JA":"グレートビクトリア砂漠","FEATURECLA":"Desert","REGION":"Oceania","SUBREGION":"Australasia","SCALERANK":3}},
{"type":"Feature","geometry":{"type":"Polygon","coordinates":[[[71.701,29.21],[70.493,28.738],[69.347,27.822],[68.64,27.413],[68.357,26.936],[68.542,24.702],[69.16,24.415],[70.313,24.752],[71.286,24.819],[71.799,25.112],[72.611,26.038],[72.717,26.159],[72.914,26.383],[74.579,27.508],[75.253,28.239],[75.594,28.956],[75.666,29.588],[75.431,30.212],[75.048,30.461],[74.507,30.489],[73.98,30.32],[72.11,29.393],[71.787,29.238],[71.701,29.21]]]},"properties":{"NAME":"THAR DESERT","NAME_JA":"タール砂漠","FEATURECLA":"Desert","REGION":"Asia","SUBREGION":null,"SCALERANK":3}},
{"type":"Feature","geometry":{"type":"Polygon","coordinates":[[[38.147,30.979],[39.185,30.622],[40.503,30.484],[42.829,31.026],[43.367,31.619],[43.526,32.414],[43.334,32.802],[42.68,33.454],[42.206,33.701],[40.713,34.082],[38.028,33.908],[37.468,33.764],[37.058,33.383],[36.869,32.295],[37.204,31.633],[38.147,30.979]]]},"properties":{"NAME":"SYRIAN DESERT","NAME_JA":"シリア砂漠","FEATURECLA":"Desert","REGION":"Asia","SUBREGION":null,"SCALERANK":3}},
{"type":"Feature","geometry":{"type":"Polygon","coordinates":[[[67.217,39.62],[66.79,39.921],[65.025,40.192],[64.453,39.976],[63.463,39.385],[62.504,40],[61.877,41.126],[61.278,41.279],[59.929,42.32],[59.286,42.619],[59.128,43.019],[59.262,43.759],[59.753,44.53],[59.648,45.333],[59.562,45.48],[58.61,43.992],[58.491,43.842],[57.538,42.837],[56.238,41.838],[55.986,41.438],[55.893,40.297],[56.389,39.348],[56.743,39.048],[57.447,38.806],[58.436,38.159],[59.128,37.669],[60.475,36.828],[61.313,36.472],[62.189,36.255],[63.094,36.223],[64.168,36.757],[65.489,37.863],[67.217,39.62]]]},"properties":{"NAME":"GARAGUM DESERT","NAME_JA":"カラクム砂漠","FEATURECLA":"Desert","REGION":"Asia","SUBREGION":null,"SCALERANK":3}},
{"type":"Feature","geometry":{"type":"Polygon","coordinates":[[[68.571,43.505],[67.431,44.66],[66.893,45.065],[65.141,46.383],[62.766,47.492],[60.925,47.256],[60.113,46.331],[59.562,45.48],[59.648,45.333],[59.753,44.53],[59.262,43.759],[59.128,43.019],[59.286,42.619],[59.929,42.32],[61.278,41.279],[61.877,41.126],[62.504,40],[63.463,39.385],[64.453,39.976],[65.025,40.192],[66.79,39.921],[67.217,39.62],[68.625,41.352],[69.115,42.284],[69.021,43.049],[68.571,43.505]]]},"properties":{"NAME":"QIZILQUM DESERT","NAME_JA":"キジルクム砂漠","FEATURECLA":"Desert","REGION":"Asia","SUBREGION":null,"SCALERANK":3}},
{"type":"Feature","geometry":{"type":"Polygon","coordinates":[[[-69.512,-18.497],[-69.873,-18.061],[-70.322,-18.325],[-70.358,-18.4],[-70.299,-18.798],[-70.292,-18.847],[-70.157,-19.706],[-70.147,-20.23],[-70.035,-21.377],[-70.265,-22.753],[-70.388,-23.053],[-70.461,-23.037],[-70.551,-23.055],[-70.553,-23.066],[-70.588,-23.368],[-70.512,-23.483],[-70.41,-23.656],[-70.507,-24.13],[-70.541,-24.38],[-70.565,-24.676],[-70.515,-24.876],[-70.417,-25.274],[-70.488,-25.405],[-70.708,-25.814],[-70.7,-25.861],[-70.635,-25.993],[-70.647,-26.329],[-70.708,-26.597],[-70.813,-26.951],[-70.903,-27.283],[-70.833,-27.303],[-70.384,-27.344],[-69.962,-28.003],[-69.776,-27.783],[-69.86,-27.193],[-69.658,-26.585],[-68.83,-25.555],[-68.619,-24.644],[-68.059,-24.09],[-67.866,-22.982],[-68.36,-22.259],[-68.841,-20.455],[-69.041,-19.755],[-69.512,-18.497]]]},"properties":{"NAME":"DESIERTO DE ATACAMA","NAME_JA":"アタカマ砂漠","FEATURECLA":"Desert","REGION":"South America","SUBREGION":null,"SCALERANK":3}},
{"type":"Feature","geometry":{"type":"Polygon","coordinates":[[[70.105,43.47],[71.581,43.089],[72.219,43.04],[73.452,43.196],[73.843,43.459],[73.863,44.09],[72.705,45.05],[72.025,46.095],[69.987,46.584],[69.718,46.586],[67.79,46.049],[67.39,45.381],[68.055,44.445],[68.994,43.929],[69.312,43.675],[70.105,43.47]]]},"properties":{"NAME":"BETPAQDALA DESERT","NAME_JA":"ベトパクダラ砂漠","FEATURECLA":"Desert","REGION":"Asia","SUBREGION":null,"SCALERANK":2}},
{"type":"Feature","geometry":{"type":"Polygon","coordinates":[[[75.666,29.588],[75.967,29.387],[76.486,29.554],[76.532,30.246],[75.988,31.963],[75.743,32.298],[74.833,32.825],[73.921,33.02],[73.407,32.96],[73.05,32.715],[72.424,32.552],[71.708,31.483],[71.535,31.038],[71.534,30.281],[71.332,29.775],[71.701,29.21],[71.787,29.238],[72.11,29.393],[72.571,29.269],[73.959,29.358],[74.393,29.533],[75.666,29.588]]]},"properties":{"NAME":"PUNJAB","NAME_JA":"パンジャーブ","FEATURECLA":"Desert","REGION":"Asia","SUBREGION":null,"SCALERANK":2}},
{"type":"Feature","geometry":{"type":"Polygon","coordinates":[[[52.123,22.622],[51.494,22.807],[50.917,23.598],[49.969,24.256],[49.634,24.117],[49.587,23.565],[48.757,22.799],[48.449,22.254],[47.941,21.652],[47.182,21.075],[46.252,20.199],[45.152,19.335],[44.773,18.362],[44.861,17.303],[45.751,16.67],[46.73,16.541],[47.516,16.701],[48.226,17.031],[49.45,17.38],[50.679,17.831],[51.967,18.078],[52.867,18.132],[53.296,18.256],[54.126,18.933],[54.848,19.349],[55.241,19.697],[55.752,20.36],[56.143,21.304],[56.199,22.484],[56.11,22.826],[55.538,23.641],[54.907,23.827],[53.343,22.794],[52.79,22.621],[52.123,22.622]]]},"properties":{"NAME":"RUB’ AL KHALI","NAME_JA":"ルブアルハリ砂漠","FEATURECLA":"Desert","REGION":"Asia","SUBREGION":null,"SCALERANK":2}},
{"type":"Feature","geometry":{"type":"Polygon","coordinates":[[[-41.48,-2.917],[-41.967,-2.809],[-42,-2.806],[-42.25,-2.792],[-42.832,-2.53],[-43.107,-2.436],[-43.228,-2.423],[-43.455,-2.502],[-43.864,-2.595],[-44.101,-2.56],[-44.438,-2.944],[-44.623,-3.138],[-44.72,-3.203],[-44.406,-4.179],[-42.88,-4.461],[-42.395,-4.814],[-42.131,-5.608],[-42.458,-7.042],[-42.554,-7.46],[-44.561,-9.327],[-44.649,-9.412],[-45.041,-9.788],[-45.112,-10.776],[-44.629,-10.675],[-43.824,-10.741],[-43.083,-11.376],[-42.713,-9.647],[-41.972,-9.294],[-41.105,-8.718],[-40.54,-9.453],[-39.361,-8.624],[-38.694,-8.873],[-38.188,-9.299],[-36.733,-9.735],[-36.552,-9.373],[-35.887,-8.042],[-35.781,-7.09],[-35.419,-6.96],[-35.025,-6.819],[-35.095,-6.185],[-35.269,-5.668],[-35.481,-5.167],[-36.591,-5.098],[-36.747,-5.051],[-36.853,-4.992],[-37.137,-4.96],[-37.291,-4.847],[-37.515,-4.642],[-37.626,-4.592],[-38.515,-3.721],[-38.686,-3.654],[-39.147,-3.363],[-40.024,-2.866],[-40.1,-2.868],[-41.318,-2.936],[-41.48,-2.917]]]},"properties":{"NAME":"CAATINGAS","NAME_JA":"カーチンガ","FEATURECLA":"Desert","REGION":"South America","SUBREGION":null,"SCALERANK":2}},
{"type":"Feature","geometry":{"type":"Polygon","coordinates":[[[25.425,-24.484],[25.166,-23.547],[24.558,-23.018],[24.346,-22.435],[23.962,-21.783],[22.128,-21.853],[19.164,-21.112],[17.753,-20.301],[17.577,-19.207],[17.259,-18.149],[16.236,-16.35],[15.826,-16.232],[14.402,-15.821],[13.661,-15.221],[13.15,-15.186],[13.397,-16.156],[13.65,-16.694],[13.908,-17.144],[13.961,-17.655],[15.002,-19.013],[15.513,-19.772],[15.46,-20.795],[16.058,-21.482],[16.254,-21.959],[16.73,-22.365],[16.898,-23.136],[17.418,-24.182],[18.141,-24.605],[18.6,-25.028],[18.664,-25.657],[18.688,-25.893],[19.253,-26.387],[18.706,-27.41],[19.015,-27.56],[20.085,-28.371],[20.569,-28.732],[20.774,-28.732],[21.468,-28.423],[21.533,-28.407],[21.973,-28.846],[22.712,-29.585],[23.636,-29.076],[24.606,-29.861],[25.4,-30.532],[25.232,-28.296],[25.272,-26.073],[25.409,-24.998],[25.425,-24.484]]]},"properties":{"NAME":"KALAHARI DESERT","NAME_JA":"カラハリ砂漠","FEATURECLA":"Desert","REGION":"Africa","SUBREGION":null,"SCALERANK":2}},
{"type":"Feature","geometry":{"type":"Polygon","coordinates":[[[111.703,41.235],[112.504,41.863],[113.695,42.304],[116.437,42.389],[116.841,42.555],[117.249,43.223],[117.301,43.915],[117.522,44.509],[117.721,46.929],[117.58,47.344],[115.719,47.725],[114.741,47.756],[113.813,47.786],[113.199,47.673],[109.133,45.6],[108.529,45.433],[104.285,45.33],[102.276,44.698],[100.751,44.554],[99.912,44.474],[99.695,44.454],[96.211,44.857],[95.506,44.645],[95.378,44.086],[95.279,43.019],[94.593,42.192],[94.487,41.433],[94.882,40.69],[95.619,40.245],[96.439,40.074],[96.45,40.073],[96.82,40.028],[98.124,39.872],[98.969,39.701],[99.103,39.638],[99.287,39.563],[99.369,39.547],[99.925,39.346],[100.369,38.943],[100.445,38.873],[100.956,38.48],[100.997,38.472],[101.596,38.35],[102.014,38.265],[102.284,38.21],[102.375,38.192],[102.568,38.097],[103.094,37.837],[103.66,37.887],[104.201,38.05],[104.81,38.48],[105.257,39.292],[105.404,39.56],[105.561,40.034],[105.909,40.291],[106.648,40.531],[107.35,41.34],[110.695,40.858],[111.434,41.061],[111.632,41.179],[111.703,41.235]]]},"properties":{"NAME":"GOBI DESERT","NAME_JA":"ゴビ砂漠","FEATURECLA":"Desert","REGION":"Asia","SUBREGION":null,"SCALERANK":1}},
{"type":"Feature","geometry":{"type":"Polygon","coordinates":[[[18.621,29.561],[17.903,29.555],[14.913,30.931],[12.182,31.773],[11.604,32.144],[10.733,32.764],[9.955,33.317],[8.833,34.114],[8.114,34.287],[5.627,34.609],[2.372,33.18],[-2.443,31.222],[-2.863,31.072],[-5.398,30.148],[-5.429,30.133],[-7.567,29.149],[-7.649,29.112],[-8.576,28.744],[-10.725,28.126],[-12.469,28.009],[-12.622,27.988],[-13.635,26.645],[-14.471,26.163],[-14.523,25.925],[-14.671,25.636],[-14.856,24.872],[-15.039,24.549],[-15.062,24.533],[-16.344,22.607],[-16.427,22.459],[-17.036,21.173],[-17.058,21.001],[-17.019,20.969],[-16.998,21.04],[-16.971,21.076],[-16.535,20.654],[-16.53,20.71],[-16.479,20.69],[-16.334,20.416],[-16.233,20.001],[-16.514,19.362],[-16.213,19.003],[-16.043,18.734],[-16.007,17.623],[-16.027,17.596],[-16.07,17.536],[-16.207,17.193],[-16.347,16.926],[-16.481,16.454],[-16.484,16.026],[-16.484,15.805],[-16.35,15.725],[-14.055,14.949],[-13.947,14.922],[-13.071,14.866],[-11.96,14.893],[-10.726,15.006],[-8.755,15.187],[-7.626,15.161],[-4.86,14.747],[-4.696,15.144],[-4.528,15.549],[-4.592,15.577],[-4.814,15.724],[-3.59,16.407],[-3.018,16.673],[-1.498,17.093],[-0.939,17.093],[-0.673,17.028],[-0.224,16.878],[-0.228,16.831],[-1.342,16.895],[-1.384,16.895],[-2.328,16.645],[-2.906,16.462],[-2.936,16.217],[-2.871,16.209],[-2.578,16.197],[-2.098,16.177],[-2.672,15.7],[-3.23,15.627],[-3.513,15.533],[-3.793,14.942],[-2.884,15.135],[-2.572,14.731],[-1.892,14.241],[-1.738,14.13],[-0.432,13.865],[0.75,13.918],[2.727,14.109],[3.343,14.117],[4.824,13.901],[5.319,14.092],[5.789,14.11],[7.667,14.099],[8.553,14.021],[9.957,13.23],[11.033,12.895],[11.695,12.88],[12.568,12.86],[13.33,12.423],[13.505,11.972],[14.286,10.356],[14.327,10.275],[14.772,9.95],[15.318,10.007],[15.688,10.046],[15.774,10.089],[15.732,10.41],[15.662,10.955],[15.655,11.162],[16.164,11.528],[16.868,11.058],[17.442,10.356],[17.591,10.216],[17.656,10.224],[18.036,10.461],[17.801,10.742],[17.168,11.499],[18,11.537],[18.948,11.326],[19.775,11.136],[20.032,10.887],[19.776,10.245],[19.979,9.969],[20.08,9.974],[21.032,10.244],[21.028,10.265],[20.769,10.537],[21.191,10.617],[21.28,10.634],[21.681,10.38],[21.956,10.195],[22.041,10.138],[22.499,10.133],[22.665,10.171],[22.669,10.172],[23.494,10.345],[23.691,10.27],[24.288,10.139],[24.298,10.138],[25.396,10.016],[25.565,9.997],[25.735,10.016],[25.844,10.07],[26.238,10.267],[26.714,9.764],[26.988,9.77],[27.688,9.714],[28.998,9.435],[29.076,9.418],[29.285,9.374],[29.401,9.349],[29.57,9.435],[29.583,9.444],[29.827,9.573],[30.494,9.498],[31.475,9.466],[31.589,9.465],[32.138,9.46],[32.37,9.543],[33.165,9.825],[33.551,10.001],[33.518,10.443],[33.453,11.337],[33.782,12.122],[34.313,12.397],[35.119,12.816],[35.182,12.939],[35.793,14.275],[36.023,14.88],[36.539,15.217],[36.559,15.226],[36.983,14.757],[37.144,13.972],[37.617,13.574],[38.01,13.85],[38.005,13.887],[37.879,14.58],[38.402,15.151],[38.329,16.207],[37.718,17.841],[37.821,18.16],[37.847,18.24],[37.745,18.407],[37.471,18.82],[37.248,19.582],[37.193,20.121],[37.116,21.289],[36.927,21.587],[36.883,21.769],[36.871,21.997],[36.871,22.013],[36.867,22.022],[36.856,22.044],[36.231,22.504],[35.913,22.74],[35.846,22.786],[35.523,23.443],[35.485,23.615],[35.498,23.986],[35.659,23.958],[35.625,24.066],[35.478,24.155],[35.194,24.475],[34.565,25.691],[33.959,26.649],[33.893,27.049],[33.697,27.341],[33.559,27.701],[33.202,28.208],[32.898,28.565],[32.659,28.928],[32.632,28.992],[32.59,29.215],[32.538,29.294],[32.323,29.621],[32.473,29.925],[32.555,30.083],[32.416,30.375],[32.273,30.622],[31.714,30.508],[31.3,30.176],[31.177,30.115],[30.961,30.074],[27.22,30.242],[25.985,30.271],[23.491,30.312],[22.067,30.335],[19.928,29.831],[19.253,29.582],[18.621,29.561]]]},"properties":{"NAME":"SAHARA","NAME_JA":"サハラ砂漠","FEATURECLA":"Desert","REGION":"Africa","SUBREGION":null,"SCALERANK":1}}
]}