{"type":"FeatureCollection","metadata":{"dataset":"NSIDC Sea Ice Index, Version 4 (G02135)","doi":"10.7265/a98x-0f50","climatology":"1981-2010 monthly median ice extent","processing":"densify 25 km before EPSG:3411/3412 → WGS84 · precision 0.0001° · seasonal hemisphere merge"},"features":[{"type":"Feature","id":"winter-median-edge","properties":{"edge":"winter","northMonth":"March","southMonth":"September"},"geometry":{"type":"MultiLineString","coordinates":[[[139.9632,47.9115],[140.0219,47.9757],[140.2308,48.0307],[140.2947,48.1283],[140.359,48.2259],[140.5796,48.3474],[140.6449,48.4449],[140.7106,48.5425],[140.9236,48.596],[141.0465,48.7235],[141.261,48.7763],[141.3628,48.7689],[141.5546,48.6864],[141.5936,48.6153]],[[147.6939,44.646],[147.7592,44.703],[147.96,44.7379],[148.0363,44.8269],[148.1129,44.9158],[148.3364,45.014],[148.4141,45.1028],[148.4921,45.1915],[148.5939,45.2081]],[[148.5562,45.5209],[148.5325,45.5931],[148.3706,45.6885],[148.3221,45.8329],[148.1016,45.9032],[147.8803,45.9729],[147.6839,45.9699],[147.4875,45.9664],[147.2877,45.9517],[147.0881,45.9364],[146.8887,45.9207],[146.6829,45.8828],[146.5527,45.9354],[146.4221,45.9878],[146.3662,46.1313],[146.3851,46.1966],[146.4607,46.2879],[146.5365,46.3792],[146.7644,46.4828],[146.8487,46.6525],[146.9338,46.8222],[147.0196,46.992],[147.1244,47.1136],[147.2299,47.2352],[147.3361,47.3567],[147.4132,47.517],[147.491,47.6774],[147.5695,47.8379],[147.6486,47.9985],[147.7909,48.1151],[147.9341,48.2316],[148.0402,48.3885],[148.1472,48.5453],[148.1704,48.6112],[148.1673,48.7507],[148.164,48.8903],[148.2346,49.0883],[148.3445,49.2456],[148.4552,49.4029],[148.707,49.5032],[148.8072,49.6741],[148.9084,49.845],[149.0106,50.016],[149.0879,50.2147],[149.166,50.4135],[149.2189,50.6027],[149.2723,50.792],[149.3263,50.9815],[149.3809,51.1712],[149.436,51.361],[149.4381,51.5502],[149.4402,51.7396],[149.4424,51.9292],[149.4852,52.1007],[149.5284,52.2723],[149.572,52.4441],[149.6161,52.616],[149.4524,52.785],[149.4398,52.8944],[149.4271,53.0039],[149.2323,53.1056],[149.1769,53.2574],[148.9798,53.3588],[148.9229,53.5107],[148.7236,53.6116],[148.7413,53.7526],[148.7592,53.8936],[148.7772,54.0348],[148.8482,54.2044],[148.92,54.3742],[149.1093,54.527],[149.3003,54.6796],[149.5648,54.7126],[149.8299,54.7448],[150.0955,54.7763],[150.3616,54.8072],[150.6282,54.8373],[150.8953,54.8667],[151.1628,54.8954],[151.4308,54.9233],[151.5391,55.0513],[151.6483,55.1793],[151.7583,55.3072],[151.8476,55.4756],[151.9379,55.6441],[151.9991,55.8177],[152.0611,55.9915],[152.1237,56.1654],[152.187,56.3395],[152.2815,56.5084],[152.3771,56.6773],[152.5083,56.828],[152.6407,56.9785],[152.7745,57.1291],[153.1038,57.2204],[153.2274,57.3106],[153.3517,57.4007],[153.6433,57.423],[153.8532,57.5348],[154.0622,57.5338],[154.2713,57.5323],[154.5206,57.4851],[154.6848,57.4158],[154.8483,57.3463],[154.7989,57.1672],[154.75,56.9883],[154.7843,56.8308],[154.8182,56.6735],[154.7716,56.5323],[154.7253,56.3911],[154.6794,56.2501],[154.8321,56.0694],[154.806,55.9246],[154.78,55.78],[154.93,55.5995],[154.9037,55.4551],[154.8778,55.3109],[155.025,55.1308],[154.9988,54.9867],[154.9727,54.8429],[155.1022,54.7409],[155.2308,54.6389],[155.2605,54.4832]],[[155.4099,54.1151],[155.459,53.9926],[155.4112,53.8169],[155.3639,53.6413],[155.5014,53.4621],[155.4745,53.3196]],[[155.5764,53.1853],[155.6642,53.1283],[155.6571,53.0185],[155.6501,52.9088],[155.7833,52.73],[155.7759,52.6205],[155.7686,52.5111],[155.94,52.3971],[156.0456,52.3723],[156.1715,52.3796]],[[161.9802,55.438],[162.1186,55.4374],[162.2587,55.5152],[162.3994,55.5929],[162.7353,55.6526],[162.8778,55.7296],[163.0209,55.8065],[163.3008,55.8021],[163.4452,55.8784],[163.5904,55.9546],[163.7112,56.0785],[163.7775,56.2193]],[[163.794,56.4563],[163.7434,56.5524],[163.8108,56.6935],[163.8788,56.8347],[163.7766,57.0274],[163.8451,57.1689],[163.9143,57.3104],[163.8108,57.5035],[163.9257,57.6523],[164.0416,57.801],[164.1588,57.9498],[164.277,58.0985],[164.4315,58.2436],[164.5874,58.3886],[164.7449,58.5334],[164.945,58.6796],[165.1472,58.8254],[165.3513,58.971],[165.5574,59.1164],[165.7841,59.1723],[166.0117,59.2277],[166.2166,59.332],[166.4229,59.436],[166.7367,59.4219],[166.9081,59.4945],[167.0804,59.5668],[167.4712,59.6116],[167.6456,59.6831],[167.8208,59.7543],[168.1373,59.7364],[168.4129,59.8171],[168.7296,59.7975],[168.947,59.7673],[169.1639,59.7367],[169.3803,59.7057],[169.5963,59.6743],[169.8118,59.6425],[170.0269,59.6102],[170.2074,59.6777],[170.3887,59.7449],[170.7863,59.7782],[170.9923,59.8806],[171.1998,59.9828],[171.4088,60.0846],[171.6965,60.1573],[171.9858,60.2294],[172.1993,60.3299],[172.4144,60.43],[172.6311,60.5297],[173.042,60.5552],[173.2811,60.6464],[173.5216,60.7371],[173.9364,60.7594],[174.18,60.8488],[174.4253,60.9377],[174.8436,60.9568],[175.0919,61.0444],[175.3417,61.1315],[175.7636,61.1473],[175.9673,61.2057],[176.1718,61.2638],[176.4965,61.2225],[176.8084,61.2826],[177.1323,61.2396],[177.3493,61.1934],[177.5656,61.1469],[177.7812,61.0999],[177.996,61.0526],[178.2101,61.0049],[178.4234,60.9568],[178.6361,60.9084],[178.848,60.8595],[179.0591,60.8103],[179.2695,60.7608],[179.4791,60.7108],[179.688,60.6606],[-180,60.6099],[-179.6892,60.5585],[-179.3795,60.5063],[-179.1234,60.4281],[-178.8686,60.3494],[-178.6153,60.2702],[-178.3634,60.1905],[-178.1129,60.1103],[-177.8638,60.0295],[-177.5634,59.9726],[-177.2641,59.9148],[-176.966,59.8564],[-176.7698,59.8001],[-176.5744,59.7434],[-176.3798,59.6864],[-176.1859,59.6292],[-175.9928,59.5716],[-175.8005,59.5136],[-175.6089,59.4554],[-175.4181,59.3969],[-175.2281,59.338],[-175.0388,59.2789],[-174.8503,59.2195],[-174.6626,59.1597],[-174.3582,59.1956],[-174.0736,59.1299],[-173.888,59.0688],[-173.7032,59.0075],[-173.5191,58.9459],[-173.3359,58.884],[-173.1534,58.8219],[-172.9716,58.7594],[-172.7486,58.6684],[-172.5269,58.577],[-172.3065,58.4852],[-172.0875,58.393],[-171.8699,58.3004],[-171.6536,58.2074],[-171.3844,58.1351],[-171.1164,58.0623],[-170.8497,57.9888],[-170.5844,57.9147],[-170.3203,57.8399],[-170.0575,57.7645],[-169.8554,57.7966],[-169.6529,57.8282],[-169.2819,57.7914],[-169.0788,57.8219],[-168.8754,57.8521],[-168.6161,57.7732],[-168.3202,57.7924],[-168.0629,57.7122],[-167.807,57.6314],[-167.5524,57.5501],[-167.2991,57.4681],[-167.0404,57.5138],[-166.7809,57.5588],[-166.5425,57.5542],[-166.3041,57.5492],[-165.9865,57.6107],[-165.6676,57.6713],[-165.3042,57.6209],[-165.0414,57.6616],[-164.7779,57.7018],[-164.4156,57.6483],[-164.2094,57.6695],[-164.003,57.6904],[-163.7585,57.6001],[-163.4624,57.6058],[-163.2202,57.5143],[-162.9557,57.55],[-162.6907,57.5849],[-162.3377,57.6835],[-162.0721,57.7966],[-161.8045,57.909],[-161.5651,57.973],[-161.355,57.9887],[-161.1446,58.0041],[-160.9065,57.9073],[-160.6072,57.905],[-160.3716,57.8071],[-160.0733,57.8033],[-159.8402,57.7043],[-159.543,57.699],[-159.3123,57.5989],[-159.0832,57.4983],[-158.8555,57.3972],[-158.6294,57.2957],[-158.4829,57.2916]],[[-60.8872,45.5013],[-60.9066,45.4286],[-60.7129,45.4328],[-60.5191,45.4366],[-60.2923,45.4805],[-60.065,45.5239],[-59.8909,45.5795],[-59.7163,45.6347],[-59.5412,45.6896],[-59.5311,45.7943],[-59.5208,45.899],[-59.3838,46.0609],[-59.4163,46.2383],[-59.4492,46.4159],[-59.4824,46.5937],[-59.4369,46.7396],[-59.3911,46.8858],[-59.3449,47.032],[-59.3619,47.1673],[-59.3789,47.3027],[-59.3961,47.4382]],[[-52.9815,47.8845],[-52.8328,47.8984],[-52.6477,47.9833],[-52.4531,48.0232],[-52.258,48.0628],[-52.0626,48.1019],[-51.8668,48.1405],[-51.6706,48.1787],[-51.474,48.2165],[-51.2806,48.2762],[-51.0867,48.3355],[-50.8922,48.3944],[-50.751,48.4718],[-50.6093,48.5491],[-50.4669,48.6262],[-50.324,48.7031],[-50.1851,48.8135],[-50.0455,48.9238],[-50.0727,49.1264],[-50.1474,49.2925],[-50.2228,49.4586],[-50.4503,49.5814],[-50.5174,49.6798],[-50.585,49.7782],[-50.805,49.8324],[-50.9315,49.9611],[-50.9425,50.029],[-50.8587,50.1718],[-50.8696,50.2398],[-50.9502,50.4062],[-51.0315,50.5728],[-51.0542,50.709],[-51.077,50.8453],[-51.0679,51.0069],[-51.0586,51.1687],[-51.0492,51.3306],[-51.0841,51.5359],[-51.1444,51.6705],[-51.2051,51.8051],[-51.2662,51.9398],[-51.3958,52.0351],[-51.5262,52.1303],[-51.6078,52.2636],[-51.69,52.3971],[-51.9283,52.4494],[-52.0122,52.5827],[-52.0967,52.716],[-52.2315,52.8105],[-52.3671,52.905],[-52.4447,53.0856],[-52.5231,53.2664],[-52.6023,53.4473],[-52.7573,53.6105],[-52.9136,53.7737],[-52.9962,53.9547],[-53.0796,54.1359],[-53.1639,54.3172],[-53.3083,54.4111],[-53.4534,54.5047],[-53.5577,54.6728],[-53.663,54.8408],[-53.9409,54.9581],[-54.0299,55.0566],[-54.1194,55.1551],[-54.3109,55.1729],[-54.5027,55.1904],[-54.7866,55.3054],[-54.9794,55.322],[-55.1724,55.3381],[-55.3381,55.4641],[-55.6044,55.5077],[-55.7726,55.633],[-56.0409,55.6756],[-56.2117,55.8003],[-56.482,55.8417],[-56.5811,55.9383],[-56.6809,56.0349],[-56.9799,56.1441],[-57.0948,56.275],[-57.2106,56.4058],[-57.5149,56.5137],[-57.6334,56.6442],[-57.7528,56.7746],[-58.0626,56.8811],[-58.1606,57.0663],[-58.2598,57.2516],[-58.3602,57.4369],[-58.4618,57.6224],[-58.5647,57.8079],[-58.6688,57.9935],[-58.7742,58.1791],[-58.8659,58.3755],[-58.9588,58.572],[-59.0529,58.7686],[-59.1483,58.9653],[-59.245,59.1621],[-59.343,59.359],[-59.4135,59.5404],[-59.4849,59.7218],[-59.5572,59.9034],[-59.6304,60.085],[-59.7045,60.2668],[-59.7796,60.4486],[-59.8557,60.6306],[-59.6085,60.7371],[-59.5398,60.895],[-59.289,61.001],[-59.2178,61.159],[-58.9633,61.2644],[-58.8896,61.4223],[-58.6315,61.5271],[-58.6113,61.6413],[-58.5909,61.7555],[-58.364,61.9304],[-58.3424,62.0447],[-58.3206,62.1591],[-58.1113,62.2193],[-57.9011,62.2793],[-57.6899,62.3389],[-57.4778,62.3981],[-57.2648,62.457],[-57.0508,62.5155],[-56.7747,62.6167],[-56.684,62.7741],[-56.4038,62.8746],[-56.3099,63.0318],[-56.0255,63.1316],[-55.9925,63.246],[-55.9592,63.3604],[-55.7001,63.5313],[-55.6651,63.6457],[-55.6298,63.7602],[-55.3345,63.8587],[-55.0369,63.9566],[-54.737,64.0538],[-54.4347,64.1504],[-54.4207,64.3371],[-54.4063,64.5238],[-54.2933,64.6805],[-54.1788,64.8371],[-54.1771,64.986],[-54.1753,65.135],[-54.1735,65.2841],[-53.9405,65.3741],[-53.7058,65.4637],[-53.5836,65.6203]],[[-43.2902,59.7561],[-43.1524,59.682],[-43.0153,59.6078],[-42.7264,59.6743],[-42.6467,59.7805],[-42.5664,59.8868],[-42.2668,60.0241],[-42.1773,60.2021],[-42.0867,60.3802],[-41.9296,60.4844],[-41.7714,60.5885],[-41.7057,60.7312],[-41.6393,60.874],[-41.5723,61.0169],[-41.4097,61.1207],[-41.2458,61.2243],[-41.1692,61.4153],[-41.0915,61.6064],[-41.0126,61.7976],[-40.832,61.9734],[-40.6489,62.149],[-40.5653,62.3404],[-40.4805,62.5318],[-40.3945,62.7233],[-40.2165,62.8262],[-40.0372,62.9289],[-39.9222,63.1073],[-39.8056,63.2856],[-39.4515,63.4173],[-39.3464,63.5228],[-39.2404,63.6282],[-38.8962,63.6858],[-38.6964,63.8232],[-38.3483,63.8794],[-38.2268,64.0204],[-38.1039,64.1614],[-37.9063,64.2616],[-37.7071,64.3614],[-37.5796,64.5021],[-37.4506,64.6428],[-37.0881,64.6957],[-36.7241,64.7477],[-36.3586,64.7987],[-35.9915,64.8487],[-35.6229,64.8978],[-35.2529,64.9458],[-34.8814,64.9928],[-34.6483,65.1243],[-34.2729,65.1697],[-34.0348,65.3003],[-33.6555,65.344],[-33.2749,65.3866],[-32.8929,65.4282],[-32.5096,65.4688],[-32.125,65.5083],[-31.7391,65.5467],[-31.3521,65.584],[-31.0939,65.7095],[-30.7031,65.7451],[-30.5494,65.843],[-30.3943,65.9407],[-29.9517,66.0455],[-29.7928,66.1427],[-29.6326,66.2397],[-29.3437,66.2457],[-29.0546,66.251],[-28.7654,66.2558],[-28.4761,66.26],[-28.1867,66.2636],[-27.8973,66.2666],[-27.4928,66.2932],[-27.2062,66.4115],[-26.7984,66.4361],[-26.5064,66.553],[-26.0954,66.5756],[-25.9167,66.6684],[-25.7365,66.761],[-25.2577,66.851],[-25.0411,66.9776],[-24.8221,67.1039],[-24.3323,67.1909],[-24.1413,67.2817],[-23.9487,67.3722],[-23.5203,67.3875],[-23.3242,67.4772],[-23.1265,67.5667],[-22.6199,67.6482],[-22.3801,67.771],[-22.1377,67.8936],[-21.6197,67.9718],[-21.4104,68.0591],[-21.1994,68.1462],[-20.7541,68.1536],[-20.5395,68.2397],[-20.3231,68.3257],[-19.7881,68.3977],[-19.525,68.5439],[-19.2582,68.6897],[-18.9876,68.8351],[-18.574,68.9692],[-18.155,69.1022],[-17.8947,69.2432],[-17.6307,69.3838],[-17.363,69.524],[-17.0916,69.6638],[-16.6992,69.7603],[-16.3031,69.8559],[-15.9595,70.0183],[-15.6103,70.18],[-15.2551,70.3411],[-14.8399,70.4334],[-14.4208,70.5246],[-14.0362,70.6662],[-13.646,70.807],[-13.5271,70.8709],[-13.4452,70.9862],[-13.3622,71.1016],[-13.118,71.229],[-12.7712,71.3362],[-12.4204,71.4428],[-12.165,71.569],[-12.0062,71.7154],[-11.8448,71.8617],[-11.9864,72.0696],[-11.7872,72.2091],[-11.5848,72.3485],[-11.3792,72.4878],[-11.3099,72.6547],[-11.2393,72.8217],[-11.025,72.9607],[-10.8071,73.0995],[-10.5856,73.2381],[-10.7231,73.4476],[-10.4961,73.5863],[-10.2651,73.7247],[-10.0302,73.863],[-9.9406,74.0299],[-9.849,74.1969],[-9.4428,74.3782],[-9.0269,74.5587],[-8.601,74.7385],[-8.165,74.9175],[-7.7183,75.0957],[-7.386,75.269],[-7.0458,75.4418],[-6.6972,75.6141],[-6.3402,75.786],[-5.8425,75.9607],[-5.3322,76.1344],[-4.8088,76.307],[-4.272,76.4786],[-3.7213,76.6489],[-3.5323,76.8131],[-3.3385,76.9772],[-2.8986,77.144],[-2.447,77.3101],[-2.7263,77.4688],[-2.5004,77.5787],[-2.2704,77.6884],[-2.3111,77.9034],[-1.7357,78.0692],[-1.144,78.2339],[-0.5355,78.3972],[-0.1807,78.5413],[0.1831,78.685],[0.5563,78.8283],[1.2699,78.9878],[2.0045,79.1457],[2.7609,79.3017],[3.5396,79.4559],[4.3301,79.5812],[5.1398,79.7046],[5.8922,79.782],[6.6561,79.8577],[7.4314,79.9315],[8.3035,79.8559],[9.2602,79.8845],[10.114,79.804],[10.5915,79.816]],[[9.6052,79.2724],[9.5095,79.166],[9.1352,79.0683],[8.7676,78.9702],[9.0738,78.8245],[9.3721,78.6786],[9.3955,78.5413],[9.4183,78.404],[9.7015,78.2579],[9.9777,78.1114],[10.1886,78.049],[10.6514,77.9766],[11.1085,77.9034],[11.5092,77.7768],[11.85,77.597],[12.1809,77.4168],[12.1715,77.2797],[12.1622,77.1427],[12.4943,76.9798],[12.8182,76.8165],[13.134,76.6529],[13.4778,76.5237],[13.815,76.394],[14.3366,76.2248],[14.8455,76.0545],[15.3418,75.8832],[15.8262,75.7109],[16.3088,75.5463],[16.7805,75.3807],[17.2415,75.2143],[17.692,75.047],[18.1325,74.8788],[18.5631,74.7099],[19.0715,74.6075],[19.7989,74.6718],[20.5323,74.7336],[21.2716,74.793],[21.8901,74.8631],[22.5144,74.9315],[23.1443,74.9981],[23.7305,75.0783],[24.323,75.1569],[24.9218,75.234],[25.5269,75.3094],[25.8955,75.5024],[26.517,75.5753],[27.1448,75.6464],[27.7788,75.7159],[28.419,75.7836],[29.1113,75.833],[29.8085,75.8804],[30.5102,75.9257],[31.3424,75.9504],[32.1773,75.9721],[33.0146,75.9908],[33.3212,76.0064],[33.8759,76.1107],[34.1861,76.1251],[34.681,76.1087],[35.1747,76.0913],[35.8974,75.9666],[36.531,75.9648],[37.1645,75.9613],[37.7975,75.9561],[38.4537,75.8989],[39.1045,75.84],[39.7497,75.7793],[40.3894,75.7168],[41.0444,75.577],[41.6514,75.5867],[42.4575,75.6223],[43.2674,75.655],[44.0809,75.685],[45,75.6868],[45.9191,75.685],[46.7326,75.655],[47.5425,75.6223],[48.3486,75.5867],[48.5138,75.4324],[48.6754,75.2781],[48.8337,75.1237],[48.9887,74.9693],[49.1405,74.8148],[49.2892,74.6602],[49.3409,74.5076],[49.3915,74.355],[49.4412,74.2024],[49.6724,74.0458],[49.8991,73.8891],[50.1213,73.7321],[50.2186,73.616],[50.3145,73.4999],[50.2658,73.3498],[50.1238,73.177],[49.9846,73.0041],[49.8483,72.8312],[49.5438,72.6498],[49.2456,72.4681],[49.1428,72.3007],[49.042,72.1334],[48.9431,71.9661],[48.846,71.7988],[48.5763,71.6538],[48.3109,71.5086],[48.2058,71.3602],[48.1024,71.2119],[48.0007,71.0635],[47.5194,70.9211],[47.3859,70.7731],[47.2546,70.625],[46.7899,70.4808],[46.6683,70.3698],[46.5482,70.2587],[46.1017,70.1874],[45.8747,70.0393],[45.4357,69.9663],[45.2162,69.8174],[44.7846,69.7428],[44.5724,69.5931],[44.2532,69.5547],[43.9351,69.5156],[43.5204,69.3632],[43.2068,69.3227],[42.8945,69.2817],[42.701,69.1299],[42.2935,69.049],[42.2048,68.9356],[42.117,68.8223],[41.7295,68.6657],[41.6514,68.515],[41.5744,68.3644],[41.1992,68.2067],[41.1198,68.0931],[41.0412,67.9795],[40.8511,67.9372]],[[122.6572,39.4444],[122.8211,39.4559],[122.9851,39.4669],[123.145,39.4931],[123.3051,39.519],[123.4171,39.5692],[123.5293,39.6192],[123.4728,39.675]],[[125.2965,39.3597],[125.1761,39.3436],[125.0438,39.1973],[124.9123,39.051],[124.8938,38.9523],[124.8753,38.8537],[124.9687,38.8027],[125.0619,38.7516]],[[22.2677,59.0898],[22.3694,59.1505],[22.3909,59.3105],[22.3369,59.3767],[22.0979,59.4813],[21.7829,59.4911],[21.541,59.5945],[21.2246,59.6028],[20.9798,59.705],[20.662,59.7117],[20.4143,59.8128],[20.0952,59.8179],[19.9095,59.9331],[19.7223,60.048],[19.7604,60.1764],[19.7989,60.3048],[19.8728,60.4813],[19.9476,60.6579],[20.1836,60.7515],[20.4213,60.8446],[20.4328,61.0061],[20.6427,61.1318],[20.6182,61.2455],[20.5935,61.3593],[20.7446,61.551],[20.6445,61.7151],[20.5433,61.8792],[20.4409,62.0433],[20.0676,62.1626],[19.6909,62.2808],[19.3684,62.3703],[19.0437,62.4591],[18.7168,62.547],[18.4174,62.4985],[18.119,62.4493]],[[10.7843,-54.1674],[10.6783,-54.2148],[10.3957,-54.2811],[10.112,-54.3467],[9.8273,-54.4114],[9.5414,-54.4753],[9.2544,-54.5385],[8.9664,-54.6008],[8.6772,-54.6623],[8.387,-54.7229],[8.0958,-54.7828],[7.8035,-54.8417],[7.5678,-54.8837],[7.3316,-54.9251],[7.0947,-54.9659],[6.8525,-54.983],[6.5423,-54.9686],[6.2324,-54.9532],[6.0377,-54.8947],[5.8436,-54.8358],[5.5685,-54.834],[5.2934,-54.8315],[5.0184,-54.8282],[4.7435,-54.8242],[4.3801,-54.8409],[4.0163,-54.8563],[3.6953,-54.8922],[3.3736,-54.9271],[3.0513,-54.961],[2.8076,-54.9682],[2.5001,-54.9412],[2.1932,-54.9133],[1.828,-54.9207],[1.5861,-54.96],[1.3436,-54.9987],[1.1001,-55.0251],[0.8563,-55.0509],[0.6121,-55.0761],[0.3675,-55.1007],[0.1226,-55.1247],[-0.1227,-55.1481],[-0.3683,-55.1709],[-0.6143,-55.1932],[-0.8606,-55.2148],[-1.1076,-55.2475],[-1.3551,-55.2796],[-1.6031,-55.3112],[-1.8516,-55.3421],[-2.1005,-55.3724],[-2.3499,-55.4021],[-2.5379,-55.4327],[-2.7263,-55.463],[-2.915,-55.493],[-3.1041,-55.5226],[-3.2935,-55.5518],[-3.4833,-55.5807],[-3.7341,-55.5953],[-3.9851,-55.6092],[-4.2364,-55.6226],[-4.4879,-55.6353],[-4.7395,-55.6473],[-4.9913,-55.6588],[-5.2433,-55.6696],[-5.4955,-55.6798],[-5.7478,-55.6894],[-5.8975,-55.8225],[-6.1601,-55.8778],[-6.4235,-55.9324],[-6.6878,-55.9864],[-6.953,-56.0398],[-7.219,-56.0924],[-7.486,-56.1444],[-7.7538,-56.1957],[-7.9142,-56.326],[-8.1842,-56.3763],[-8.3826,-56.396],[-8.5812,-56.4153],[-8.7801,-56.4342],[-8.9793,-56.4528],[-9.1786,-56.471],[-9.3782,-56.4888],[-9.578,-56.5062],[-9.7781,-56.5232],[-9.9783,-56.5399],[-10.1787,-56.5562],[-10.3794,-56.572],[-10.5802,-56.5875],[-10.7813,-56.6026],[-10.9825,-56.6173],[-11.184,-56.6317],[-11.3856,-56.6456],[-11.5873,-56.6592],[-11.7893,-56.6723],[-12.0678,-56.7123],[-12.347,-56.7516],[-12.6268,-56.7902],[-12.9074,-56.8279],[-13.1886,-56.865],[-13.4705,-56.9013],[-13.7325,-56.8909],[-13.9944,-56.8799],[-14.256,-56.8682],[-14.5174,-56.8559],[-14.7787,-56.8429],[-15.0397,-56.8292],[-15.3005,-56.8149],[-15.561,-56.8],[-15.8213,-56.7844],[-16.0166,-56.9013],[-16.3017,-56.9299],[-16.4997,-57.046],[-16.7866,-57.0733],[-17.074,-57.0999],[-17.3618,-57.1257],[-17.6501,-57.1507],[-17.9809,-57.1302],[-18.3112,-57.1086],[-18.641,-57.0861],[-18.9704,-57.0624],[-19.2993,-57.0378],[-19.6276,-57.0122],[-19.9164,-57.0309],[-20.2056,-57.0489],[-20.4951,-57.0661],[-20.7849,-57.0825],[-21.1219,-57.1643],[-21.4608,-57.245],[-21.594,-57.3311],[-21.728,-57.4171],[-22.0217,-57.4301],[-22.2435,-57.535],[-22.5385,-57.5466],[-22.7628,-57.6505],[-23.0591,-57.6607],[-23.1812,-57.6327],[-23.3376,-57.5579],[-23.4933,-57.4829],[-23.6294,-57.2957],[-23.8429,-57.2061],[-24.0552,-57.116],[-24.1864,-56.9285],[-24.468,-56.8393],[-24.7481,-56.7494],[-25.0266,-56.6589],[-25.3035,-56.5676],[-25.6118,-56.4864],[-25.9185,-56.4044],[-26.2237,-56.3216],[-26.4941,-56.2668],[-26.7635,-56.2113],[-27.032,-56.1552],[-27.2996,-56.0983],[-27.5284,-56.1912],[-27.8116,-56.1882],[-28.0426,-56.2799],[-28.3266,-56.2755],[-28.4733,-56.3519],[-28.6206,-56.4282],[-28.9677,-56.4841],[-29.1793,-56.6215],[-29.3929,-56.7586],[-29.6006,-56.8163],[-29.8091,-56.8735],[-29.9759,-56.9847],[-30.1438,-57.0956],[-30.313,-57.2064],[-30.5254,-57.2623],[-30.7385,-57.3178],[-30.9299,-57.4216],[-31.1225,-57.5252],[-31.417,-57.5121],[-31.6683,-57.5962],[-31.9633,-57.5816],[-32.258,-57.5662],[-32.5524,-57.5501],[-32.8465,-57.5331],[-33.01,-57.6033],[-33.1742,-57.6733],[-33.5425,-57.7139],[-33.7086,-57.7831],[-33.8754,-57.8521],[-34.1715,-57.8314],[-34.4673,-57.81],[-34.7626,-57.7877],[-35.0575,-57.7645],[-35.2592,-57.7321],[-35.4604,-57.6994],[-35.7388,-57.724],[-36.0176,-57.748],[-36.2968,-57.7712],[-36.5765,-57.7937],[-36.7896,-57.8867],[-37.0041,-57.9793],[-37.2989,-57.95],[-37.5931,-57.9199],[-37.8632,-57.989],[-38.1346,-58.0575],[-38.4071,-58.1253],[-38.6809,-58.1925],[-38.9458,-58.3091],[-39.2128,-58.4252],[-39.5095,-58.3898],[-39.7881,-58.4543],[-40.0845,-58.4173],[-40.3645,-58.4803],[-40.6604,-58.4418],[-40.8456,-58.4996],[-41.0315,-58.5572],[-41.4176,-58.5705],[-41.6051,-58.6271],[-41.7932,-58.6834],[-42.0892,-58.641],[-42.3076,-58.731],[-42.5274,-58.8206],[-42.7485,-58.9097],[-43.0859,-58.9921],[-43.4253,-59.0734],[-43.6666,-59.178],[-43.9097,-59.282],[-44.1546,-59.3856],[-44.4011,-59.4887],[-44.7,-59.5407],[-45,-59.5918],[-45.3016,-59.693],[-45.6052,-59.7935],[-45.9062,-59.7406],[-46.2103,-59.7886],[-46.5101,-59.7342],[-46.7143,-59.7822],[-46.9192,-59.8297],[-47.3229,-59.8222],[-47.601,-59.918],[-47.881,-60.0131],[-48.1629,-60.1076],[-48.5285,-60.1735],[-48.8958,-60.2382],[-49.2199,-60.3459],[-49.5465,-60.4529],[-49.8755,-60.5589],[-50.1381,-60.5732],[-50.401,-60.5868],[-50.6641,-60.5999],[-50.9275,-60.6124],[-51.2559,-60.6808],[-51.5859,-60.7482],[-51.9175,-60.8147],[-52.2507,-60.8803],[-52.5854,-60.9449],[-52.9216,-61.0086],[-53.2746,-61.122],[-53.6305,-61.2343],[-53.9892,-61.3457],[-54.3509,-61.456],[-54.7155,-61.5652],[-55.083,-61.6734],[-55.4403,-61.7469],[-55.7995,-61.8194],[-56.1607,-61.8908],[-56.5237,-61.9611],[-56.8763,-62.0526],[-57.2312,-62.1431],[-57.5885,-62.2326],[-57.9482,-62.3211],[-58.3103,-62.4085],[-58.7122,-62.5225],[-59.0091,-62.6477],[-59.3088,-62.7723],[-59.4208,-62.9719],[-59.5874,-63.0588],[-59.7552,-63.1455],[-59.7319,-63.3083],[-59.6499,-63.3713],[-59.3441,-63.46],[-59.1622,-63.4541]],[[-61.8532,-64.2519],[-61.8584,-64.17],[-61.6427,-64.0362],[-61.7273,-63.8901],[-61.811,-63.7439],[-61.5511,-63.5987],[-61.294,-63.453],[-61.0399,-63.3069],[-60.888,-63.1298],[-60.7381,-62.9526],[-60.5903,-62.7754],[-60.3205,-62.6494],[-60.0533,-62.5229],[-59.7887,-62.3959],[-59.839,-62.2834],[-59.889,-62.1709],[-59.7268,-62.0847],[-59.5658,-61.9984],[-59.4568,-61.7997],[-59.4028,-61.7004],[-59.6888,-61.6121],[-59.7654,-61.5496],[-59.8143,-61.4374],[-59.8628,-61.3254],[-60.1337,-61.317],[-60.4045,-61.308],[-60.7774,-61.2845],[-61.1497,-61.2598],[-61.4376,-61.3082],[-61.7265,-61.3558],[-62.0164,-61.4028],[-62.2838,-61.4705],[-62.5687,-61.562],[-62.8555,-61.6528],[-63.1443,-61.743],[-63.4349,-61.8326],[-63.7561,-61.9079],[-64.079,-61.9823],[-64.4036,-62.0559],[-64.7989,-62.1171],[-65.1959,-62.177],[-65.5947,-62.2357],[-65.7367,-62.2656],[-65.958,-62.3914],[-66.1012,-62.421],[-66.3482,-62.4317],[-66.5953,-62.4419],[-66.884,-62.4993],[-67.0707,-62.5755],[-67.2584,-62.6514],[-67.2822,-62.8138],[-67.5155,-62.9371],[-67.5411,-63.0996],[-67.7782,-63.2226],[-67.928,-63.2501],[-68.2488,-63.282],[-68.5702,-63.313],[-68.8925,-63.3433],[-69.3299,-63.3402],[-69.7671,-63.3356],[-70.1754,-63.3868],[-70.5853,-63.4368],[-70.9968,-63.4855],[-71.4098,-63.5329],[-71.8243,-63.5789],[-72.2407,-63.639],[-72.6591,-63.6978],[-73.0794,-63.7552],[-73.4633,-63.8253],[-73.8494,-63.8943],[-74.2375,-63.9622],[-74.6278,-64.0289],[-74.9501,-64.0673],[-75.3756,-64.0788],[-75.8014,-64.0889],[-76.2891,-64.1418],[-76.7282,-64.2066],[-77.1696,-64.2699],[-77.6132,-64.3318],[-78.059,-64.3922],[-78.479,-64.4798],[-78.9019,-64.566],[-79.3278,-64.651],[-79.7412,-64.7023],[-80.1563,-64.7524],[-80.5731,-64.8012],[-80.9915,-64.8487],[-81.2803,-65.0165],[-81.6113,-65.0747],[-81.944,-65.1321],[-82.2427,-65.2979],[-82.642,-65.3448],[-83.0428,-65.3905],[-83.4451,-65.4351],[-83.8845,-65.4554],[-84.3246,-65.4743],[-84.6827,-65.4639],[-85.0405,-65.4527],[-85.3979,-65.4405],[-85.5742,-65.4463],[-86.0721,-65.4737],[-86.5711,-65.4993],[-87.0711,-65.5231],[-87.5722,-65.5451],[-88.0741,-65.5653],[-88.5768,-65.5837],[-89.0501,-65.6123],[-89.5245,-65.6393],[-90,-65.6646],[-90.4765,-65.6884],[-90.9538,-65.7104],[-91.4321,-65.7309],[-91.9248,-65.7342],[-92.4176,-65.7357],[-92.9105,-65.7355],[-93.4033,-65.7335],[-93.8959,-65.7298],[-94.3884,-65.7244],[-94.8806,-65.7172],[-95.3725,-65.7082],[-95.7403,-65.7429],[-96.1091,-65.7765],[-96.479,-65.8092],[-96.9617,-65.8106],[-97.4443,-65.8103],[-97.9269,-65.8084],[-98.3344,-65.9334],[-98.7942,-65.9424],[-99.2544,-65.9499],[-99.5516,-66.0046],[-99.8503,-66.0586],[-100.3048,-66.0445],[-100.7589,-66.0289],[-101.2122,-66.0119],[-101.6649,-65.9934],[-102.1032,-66.0061],[-102.5419,-66.0174],[-102.981,-66.0273],[-103.4764,-65.9989],[-103.9705,-65.9687],[-104.4632,-65.9368],[-104.9546,-65.9031],[-105.3501,-65.9357],[-105.7467,-65.9672],[-106.206,-65.9519],[-106.6647,-65.9352],[-106.8375,-65.9139],[-107.1556,-65.8356],[-107.4716,-65.7566],[-107.9829,-65.6893],[-108.3409,-65.6667],[-108.6981,-65.6432],[-109.0546,-65.6188],[-109.3658,-65.652],[-109.6779,-65.6845],[-110.0441,-65.6691],[-110.4099,-65.6527],[-110.7029,-65.7648],[-111.1019,-65.781],[-111.3998,-65.8916],[-111.8014,-65.9059],[-111.9686,-65.8784],[-112.3509,-65.7748],[-112.7297,-65.6702],[-113.0583,-65.613],[-113.3852,-65.5549],[-113.8274,-65.5149],[-114.2681,-65.4736],[-114.5764,-65.5772],[-114.9739,-65.5823],[-115.1349,-65.5511],[-115.3798,-65.4218],[-115.5392,-65.3902],[-115.8159,-65.3755],[-116.0922,-65.3603],[-116.5651,-65.4269],[-116.8415,-65.4102],[-117.1175,-65.3929],[-117.4367,-65.4899],[-117.8328,-65.4869],[-118.1562,-65.5823],[-118.5537,-65.5772],[-118.7097,-65.5419],[-118.9346,-65.4065],[-119.0889,-65.3708],[-119.4392,-65.331],[-119.7885,-65.2903],[-120.1046,-65.2989],[-120.421,-65.3068],[-120.8435,-65.2448],[-121.2637,-65.1815],[-121.7453,-65.23],[-122.0733,-65.1731],[-122.3998,-65.1154],[-122.7248,-65.057],[-123.1113,-65.0388],[-123.4973,-65.0195],[-123.9063,-64.9482],[-124.3128,-64.8756],[-124.6513,-64.9551],[-124.914,-64.9224],[-125.1761,-64.8892],[-125.6584,-64.9238],[-126.0591,-64.846],[-126.4572,-64.7671],[-126.7668,-64.7604],[-127.0761,-64.7529],[-127.4294,-64.6687],[-127.7802,-64.5837],[-128.1286,-64.4977],[-128.5007,-64.4643],[-128.8717,-64.4299],[-129.1943,-64.3403],[-129.5145,-64.2499],[-129.8324,-64.1588],[-130.148,-64.067],[-130.5742,-64.0042],[-130.9982,-63.9402],[-131.3677,-63.8301],[-131.7339,-63.719],[-132.097,-63.6069],[-132.3895,-63.5873],[-132.6816,-63.5671],[-133.037,-63.4697],[-133.3897,-63.3713],[-133.8496,-63.3762],[-134.0815,-63.3265],[-134.3125,-63.2764],[-134.6555,-63.3294],[-134.9237,-63.2438],[-135.1901,-63.1577],[-135.4547,-63.0711],[-135.85,-62.9917],[-136.2429,-62.9111],[-136.5015,-62.8224],[-136.7584,-62.7332],[-137.0135,-62.6435],[-137.1211,-62.5903],[-137.2197,-62.4341],[-137.326,-62.3807],[-137.595,-62.2981],[-137.8624,-62.215],[-138.1341,-62.1827],[-138.4051,-62.1497],[-138.6832,-62.0388],[-138.9589,-61.9272],[-139.2324,-61.8151],[-139.548,-61.7522],[-139.8622,-61.6885],[-140.1652,-61.5729],[-140.4657,-61.4567],[-140.7959,-61.4926],[-140.9978,-61.4311],[-141.1988,-61.3693],[-141.6227,-61.3465],[-141.8217,-61.2837],[-142.0197,-61.2206],[-142.349,-61.2521],[-142.6507,-61.1814],[-142.9801,-61.2112],[-143.1998,-61.11],[-143.418,-61.0084],[-143.6345,-60.9065],[-143.9726,-60.8035],[-144.3083,-60.6995],[-144.5192,-60.5961],[-144.7285,-60.4924],[-144.9364,-60.3884],[-145.2588,-60.4117],[-145.5439,-60.334],[-145.8661,-60.3557],[-146.149,-60.2765],[-146.471,-60.2964],[-146.7516,-60.2158],[-147.0733,-60.2341],[-147.3516,-60.152],[-147.5732,-60.1797],[-147.7952,-60.2071],[-148.1937,-60.1612],[-148.4162,-60.1874],[-148.6391,-60.2131],[-148.7628,-60.2505],[-148.9116,-60.3372],[-149.0613,-60.4238],[-149.3121,-60.4977],[-149.6013,-60.54],[-149.8913,-60.5815],[-150.1457,-60.6536],[-150.3771,-60.7461],[-150.61,-60.8382],[-150.8444,-60.9298],[-151.1337,-61.0491],[-151.4254,-61.1677],[-151.7196,-61.2856],[-152.0164,-61.4028],[-152.1815,-61.4857],[-152.3476,-61.5683],[-152.6175,-61.6352],[-152.9571,-61.6911],[-153.2982,-61.746],[-153.6406,-61.8],[-153.9849,-61.88],[-154.3312,-61.9591],[-154.5876,-62.0435],[-154.8457,-62.1274],[-155.1053,-62.2108],[-155.2466,-62.2413],[-155.5947,-62.2357],[-155.7367,-62.2656],[-155.958,-62.3914],[-156.1012,-62.421],[-156.492,-62.4608],[-156.884,-62.4993],[-157.235,-62.489],[-157.5857,-62.4778],[-157.8966,-62.5104],[-158.2083,-62.5423],[-158.5208,-62.5734],[-158.9286,-62.4906],[-159.3222,-62.5444],[-159.7174,-62.597],[-160.1142,-62.6483],[-160.5125,-62.6984],[-160.9123,-62.7471],[-161.3514,-62.7774],[-161.7915,-62.8062],[-162.2326,-62.8334],[-162.6745,-62.8591],[-163.0636,-62.9011],[-163.454,-62.942],[-163.8455,-62.9816],[-164.2383,-63.02],[-164.6321,-63.0572],[-165.0271,-63.0932],[-165.3791,-63.0599],[-165.7302,-63.0257],[-166.1066,-63.0435],[-166.4834,-63.0602],[-166.8608,-63.0758],[-167.1317,-63.0294],[-167.4017,-62.9824],[-167.7784,-62.9952],[-168.1554,-63.0069],[-168.5327,-63.0175],[-168.8476,-63.046],[-169.1631,-63.0739],[-169.575,-63.1336],[-169.9889,-63.192],[-170.4046,-63.2491],[-170.7241,-63.2731],[-171.0442,-63.2962],[-171.373,-63.2944],[-171.7017,-63.2919],[-172.0304,-63.2884],[-172.3517,-63.3083],[-172.7742,-63.3576],[-173.1982,-63.4055],[-173.6238,-63.452],[-173.9967,-63.4946],[-174.3708,-63.5361],[-174.7462,-63.5765],[-175.1227,-63.6158],[-175.5004,-63.654],[-175.8792,-63.6911],[-176.3139,-63.7287],[-176.7499,-63.7648],[-177.1872,-63.7995],[-177.5727,-63.8073],[-177.9585,-63.8139],[-178.3445,-63.8194],[-178.7864,-63.8121],[-179.228,-63.8033],[-179.6693,-63.793],[179.8898,-63.7812],[179.4494,-63.7679],[179.0094,-63.7531],[178.64,-63.7132],[178.2718,-63.6722],[177.9047,-63.6302],[177.5389,-63.5872],[177.1315,-63.5604],[176.7248,-63.5324],[176.3191,-63.5031],[175.9144,-63.4725],[175.7756,-63.3216],[175.4584,-63.2741],[175.1423,-63.2257],[174.915,-63.1436],[174.6892,-63.0611],[174.2921,-63.0315],[173.8959,-63.0006],[173.5007,-62.9686],[173.1064,-62.9353],[172.7132,-62.9007],[172.321,-62.865],[171.8474,-62.8349],[171.3748,-62.803],[170.9034,-62.7693],[170.4333,-62.7339],[169.9828,-62.7088],[169.5332,-62.682],[169.0846,-62.6537],[168.6369,-62.6237],[168.1903,-62.5921],[167.7448,-62.559],[167.3004,-62.5242],[166.9464,-62.5055],[166.5929,-62.4857],[166.24,-62.4649],[165.8876,-62.4432],[165.5358,-62.4204],[165.1847,-62.3966],[164.8341,-62.3719],[164.4843,-62.3461],[164.0689,-62.3169],[163.6545,-62.2863],[163.241,-62.2544],[162.8286,-62.221],[162.4172,-62.1862],[162.0069,-62.1501],[161.5977,-62.1126],[161.1897,-62.0738],[160.7829,-62.0336],[160.4398,-62.0539],[160.0963,-62.0732],[159.7522,-62.0915],[159.4077,-62.1089],[159.1525,-62.2191],[158.8059,-62.2348],[158.5471,-62.3438],[158.3002,-62.3375],[158.0535,-62.3307],[157.8069,-62.3234],[157.5604,-62.3156],[157.3141,-62.3073],[157.0679,-62.2986],[156.7194,-62.3084],[156.4514,-62.4129],[156.1012,-62.421],[155.958,-62.3914],[155.7758,-62.3137],[155.5947,-62.2357],[155.3117,-62.1753],[154.9612,-62.126],[154.6121,-62.0757],[154.2643,-62.0245],[153.964,-61.9829],[153.6646,-61.9405],[153.3662,-61.8974],[153.0223,-61.8968],[152.6784,-61.8951],[152.3346,-61.8925],[152.0907,-61.9549],[151.8457,-62.0169],[151.631,-62.1277],[151.4144,-62.238],[151.0664,-62.2318],[150.7784,-62.3235],[150.4295,-62.3155],[150.1385,-62.4057],[149.7887,-62.3959],[149.4392,-62.3851],[149.0899,-62.3732],[148.741,-62.3604],[148.4439,-62.4467],[148.0944,-62.432],[147.7453,-62.4164],[147.3966,-62.3998],[147.0484,-62.3822],[146.7456,-62.4643],[146.397,-62.4449],[146.0489,-62.4245],[145.7014,-62.4031],[145.3544,-62.3807],[145.1559,-62.4496],[144.9564,-62.5182],[144.5173,-62.553],[144.0771,-62.5862],[143.6357,-62.6179],[143.1934,-62.6481],[142.9874,-62.7135],[142.7804,-62.7786],[142.4314,-62.748],[142.0833,-62.7165],[141.736,-62.684],[141.3896,-62.6505],[141.0677,-62.7184],[140.7217,-62.6831],[140.3767,-62.6468],[140.0326,-62.6095],[139.6895,-62.5713],[139.3644,-62.6348],[139.022,-62.5948],[138.6806,-62.5538],[138.3403,-62.5119],[138.0011,-62.4691],[137.663,-62.4253],[137.2197,-62.4341],[136.776,-62.4413],[136.503,-62.5221],[136.2284,-62.6023],[135.7818,-62.6059],[135.5595,-62.6586],[135.3364,-62.7108],[135,-62.6598],[134.6636,-62.7108],[134.3286,-62.658],[134.1031,-62.7081],[133.8767,-62.7577],[133.4276,-62.7529],[133.1415,-62.8262],[132.8538,-62.899],[132.4026,-62.8904],[132.1715,-62.937],[131.9396,-62.9832],[131.607,-62.923],[131.2612,-62.9649],[130.9305,-62.9029],[130.6967,-62.9468],[130.4622,-62.9902],[130.0106,-62.9731],[129.7748,-63.0153],[129.5381,-63.057],[129.2105,-62.9905],[128.8845,-62.9232],[128.5602,-62.8551],[128.3493,-62.7922],[128.1394,-62.729],[127.9305,-62.6654],[127.7226,-62.6015],[127.5158,-62.5372],[127.3099,-62.4727],[126.9953,-62.4007],[126.6503,-62.4296],[126.3379,-62.356],[125.9928,-62.3831],[125.6829,-62.3078],[125.3748,-62.2317],[125.0683,-62.1549],[124.7637,-62.0774],[124.4608,-61.9991],[124.1597,-61.9201],[123.8603,-61.8404],[123.5627,-61.76],[123.1392,-61.7186],[122.7169,-61.6757],[122.4829,-61.7038],[122.2484,-61.7314],[121.9569,-61.6471],[121.6175,-61.6619],[121.3287,-61.5761],[120.9898,-61.589],[120.7038,-61.5018],[120.3656,-61.513],[120.0824,-61.4243],[119.8481,-61.4472],[119.6134,-61.4696],[119.2014,-61.4146],[118.9003,-61.4532],[118.5984,-61.4912],[118.1881,-61.4326],[117.8855,-61.4687],[117.582,-61.5041],[117.1738,-61.4421],[116.8698,-61.4756],[116.5651,-61.5084],[116.1592,-61.4429],[115.7553,-61.3761],[115.3533,-61.308],[114.9534,-61.2385],[114.7174,-61.2512],[114.4813,-61.2635],[114.2209,-61.1615],[113.9625,-61.059],[113.706,-60.956],[113.4513,-60.8524],[113.1986,-60.7484],[112.8122,-60.6719],[112.428,-60.5942],[112.1286,-60.6156],[111.8287,-60.6361],[111.4477,-60.5552],[111.148,-60.574],[110.8479,-60.592],[110.4705,-60.5079],[110.2393,-60.5117],[110.0081,-60.5151],[109.7715,-60.404],[109.4724,-60.4185],[109.173,-60.4322],[108.9187,-60.3993],[108.6651,-60.3659],[108.3659,-60.3775],[108.0665,-60.3884],[107.8386,-60.2735],[107.5183,-60.2486],[107.2937,-60.1327],[106.9966,-60.1407],[106.6992,-60.148],[106.2834,-60.2093],[106.0251,-60.284],[105.7655,-60.3581],[105.6254,-60.3776],[105.3955,-60.3718],[105.1658,-60.3655],[104.81,-60.2636],[104.5111,-60.2652],[104.2121,-60.2661],[103.861,-60.1612],[103.6334,-60.1519],[103.4059,-60.1422],[103.1994,-60.0186],[102.9946,-59.8948],[102.7916,-59.7707],[102.5904,-59.6462],[102.2828,-59.607],[102.0849,-59.4818],[101.8887,-59.3563],[101.5164,-59.3224],[101.145,-59.2873],[100.7745,-59.251],[100.4049,-59.2135],[100.089,-59.2245],[99.7729,-59.2347],[99.4566,-59.244],[99.1401,-59.2523],[98.8634,-59.2748],[98.5862,-59.2965],[98.2692,-59.3447],[97.951,-59.392],[97.6319,-59.4384],[97.2125,-59.4662],[96.9239,-59.4483],[96.6358,-59.4296],[96.4958,-59.4378],[96.2934,-59.4855],[96.0904,-59.5328],[95.8091,-59.5477],[95.4292,-59.5426],[95.0494,-59.5362],[94.6697,-59.5286],[94.3807,-59.4922],[94.0923,-59.4551],[93.8047,-59.4173],[93.4739,-59.404],[93.1434,-59.3898],[92.8133,-59.3746],[92.6728,-59.378],[92.3977,-59.4561],[92.2568,-59.459],[91.8794,-59.442],[91.5025,-59.4237],[91.1261,-59.4042],[90.7977,-59.407],[90.4692,-59.4089],[90.1408,-59.4098],[89.7746,-59.424],[89.4082,-59.437],[89.0414,-59.4488],[88.6743,-59.4595],[88.307,-59.4689],[87.8841,-59.4617],[87.4615,-59.453],[87.1353,-59.4212],[86.8098,-59.3885],[86.485,-59.3548],[86.3626,-59.2072],[86.2414,-59.0595],[86.1215,-58.9118],[86.0027,-58.7641],[85.8017,-58.7207],[85.6013,-58.677],[85.3498,-58.5232],[85.1514,-58.4787],[84.9536,-58.4339],[84.8424,-58.2853],[84.7323,-58.1367],[84.4897,-57.9813],[84.2496,-57.8255],[84.0573,-57.7792],[83.8656,-57.7325],[83.7622,-57.5833],[83.5065,-57.5322],[83.2516,-57.4805],[83.0709,-57.3972],[82.8913,-57.3137],[82.5498,-57.2662],[82.2093,-57.2176],[81.8699,-57.1679],[81.5467,-57.1423],[81.2241,-57.1157],[80.9166,-57.1134],[80.6092,-57.1102],[80.3018,-57.106],[79.9996,-57.2216],[79.7303,-57.2316],[79.4608,-57.2409],[79.1542,-57.3541],[78.8018,-57.3412],[78.4496,-57.327],[78.0978,-57.3117],[77.8227,-57.3284],[77.5472,-57.3444],[77.2715,-57.3596],[76.9627,-57.3457],[76.6542,-57.331],[76.3459,-57.3153],[76.1556,-57.4365],[75.8677,-57.4711],[75.6745,-57.5915],[75.3847,-57.6248],[75.1887,-57.7444],[74.8969,-57.7765],[74.6979,-57.8953],[74.4042,-57.926],[74.2853,-58.0193],[74.1657,-58.1126],[73.9341,-58.1518],[73.702,-58.1904],[73.5149,-58.273],[73.3268,-58.3553],[73.112,-58.3585],[72.8973,-58.3614],[72.6867,-58.4767],[72.3854,-58.502],[72.1718,-58.6164],[71.89,-58.6063],[71.6084,-58.5955],[71.3699,-58.6292],[71.131,-58.6624],[70.8492,-58.6497],[70.5676,-58.6362],[70.4341,-58.7254],[70.2998,-58.8144],[70.0582,-58.8454],[69.8161,-58.8758],[69.6143,-58.9517],[69.4114,-59.0272],[69.1919,-59.0228],[68.9725,-59.0179],[68.7423,-59.1257],[68.5221,-59.1199],[68.3021,-59.1136],[67.9391,-59.1933],[67.5895,-59.1586],[67.2407,-59.1229],[66.9938,-59.1471],[66.7464,-59.1708],[66.4625,-59.1468],[66.1791,-59.122],[65.9381,-59.224],[65.7181,-59.2126],[65.4982,-59.2009],[65.127,-59.2713],[64.907,-59.2583],[64.6871,-59.245],[64.44,-59.3437],[64.1566,-59.3138],[63.8737,-59.2832],[63.6231,-59.2999],[63.3722,-59.3161],[63.0902,-59.2835],[62.8088,-59.2502],[62.5555,-59.3448],[62.2121,-59.2934],[61.8699,-59.241],[61.5571,-59.2362],[61.2444,-59.2305],[60.9364,-59.1706],[60.6296,-59.1098],[60.3241,-59.0482],[60.074,-59.0569],[59.8237,-59.0651],[59.5485,-59.0237],[59.2742,-58.9817],[59.0124,-59.0679],[58.7978,-59.0431],[58.5836,-59.0179],[58.2011,-59.0648],[57.9284,-59.0194],[57.6565,-58.9734],[57.4276,-59.0256],[57.1979,-59.0773],[56.947,-59.079],[56.696,-59.0802],[56.5228,-59.1502],[56.3487,-59.22],[56.1355,-59.1901],[55.9228,-59.1597],[55.6895,-59.2084],[55.4554,-59.2565],[55.1455,-59.2339],[54.8362,-59.2103],[54.5601,-59.2859],[54.2826,-59.3609],[54.0294,-59.356],[53.7764,-59.3506],[53.5948,-59.4161],[53.4123,-59.4813],[53.2006,-59.4457],[52.9893,-59.4098],[52.5946,-59.4373],[52.3842,-59.4002],[52.1743,-59.3627],[51.9891,-59.4256],[51.8031,-59.4882],[51.4064,-59.5115],[51.2186,-59.5732],[51.03,-59.6345],[50.8202,-59.5945],[50.6111,-59.554],[50.2126,-59.5732],[49.9503,-59.5086],[49.6892,-59.4434],[49.2916,-59.4593],[49.0856,-59.4161],[48.8802,-59.3725],[48.5888,-59.433],[48.2847,-59.3915],[48.0914,-59.4478],[47.8973,-59.5038],[47.4982,-59.5134],[47.3026,-59.5684],[47.1063,-59.623],[46.9025,-59.5758],[46.6994,-59.5283],[46.2997,-59.5336],[46.0979,-59.4849],[45.8967,-59.436],[45.5989,-59.4887],[45.2989,-59.4391],[45,-59.4903],[44.7011,-59.4391],[44.5009,-59.4892],[44.3001,-59.5389],[44.051,-59.5117],[43.8024,-59.4839],[43.5517,-59.5064],[43.3006,-59.5283],[43.1041,-59.4743],[42.9084,-59.4201],[42.6058,-59.4648],[42.3116,-59.4074],[42.0082,-59.4505],[41.7153,-59.3915],[41.4112,-59.433],[41.219,-59.3759],[41.0275,-59.3184],[40.6317,-59.3037],[40.4419,-59.2452],[40.2528,-59.1864],[39.9489,-59.224],[39.6626,-59.1597],[39.3582,-59.1956],[39.0736,-59.1299],[38.7688,-59.1642],[38.4858,-59.0969],[38.1807,-59.1296],[37.8994,-59.0609],[37.5941,-59.092],[37.3145,-59.0218],[37.1064,-59.0582],[36.8978,-59.0943],[36.5082,-59.0651],[36.2988,-59.1],[36.0889,-59.1346],[35.9097,-59.0687],[35.7314,-59.0025],[35.4812,-59.0068],[35.2309,-59.0106],[34.9977,-58.9639],[34.7652,-58.9167],[34.4978,-58.9687],[34.2295,-59.0199],[33.9978,-58.9712],[33.7669,-58.9219],[33.5173,-58.9218],[33.2677,-58.9211],[33.0963,-58.8509],[32.9257,-58.7803],[32.7145,-58.8084],[32.503,-58.8361],[32.1223,-58.7917],[31.8639,-58.8473],[31.6045,-58.9023],[31.3441,-58.9567],[31.0351,-58.9696],[30.7258,-58.9817],[30.4232,-59.0461],[30.1194,-59.1098],[29.8142,-59.1726],[29.5631,-59.1636],[29.3121,-59.154],[29.0342,-59.1926],[28.7556,-59.2305],[28.4991,-59.139],[28.1874,-59.144],[27.9334,-59.0512],[27.7164,-59.0697],[27.4991,-59.0878],[27.1243,-59.0262],[26.907,-59.0431],[26.6895,-59.0596],[26.441,-58.9635],[26.131,-58.9627],[25.8852,-58.8654],[25.825,-58.801],[25.7672,-58.6566],[25.71,-58.5123],[25.5334,-58.3191],[25.3569,-58.1789],[25.182,-58.0386],[25.0088,-57.898],[24.7751,-57.7988],[24.543,-57.699],[24.3564,-57.5361],[24.1718,-57.373],[23.9891,-57.2097],[23.8831,-57.08],[23.778,-56.9502],[23.707,-56.7737],[23.6367,-56.5973],[23.8197,-56.4755],[23.8333,-56.3176],[23.782,-56.2529],[23.5642,-56.1519],[23.2817,-56.1432],[23.1489,-56.0598],[23.0168,-55.9762],[22.6875,-55.901],[22.5572,-55.8169],[22.4277,-55.7327],[22.1149,-55.7668],[21.8014,-55.8],[21.5226,-55.7866],[21.244,-55.7723],[20.9297,-55.8029],[20.6147,-55.8324],[20.4099,-55.7251],[20.2125,-55.7287],[20.0151,-55.732],[19.6957,-55.6473],[19.4988,-55.6495],[19.3018,-55.6514],[19.1816,-55.5633],[19.062,-55.475],[18.7874,-55.4541],[18.5132,-55.4324],[18.2787,-55.3656],[18.0452,-55.2982],[17.7916,-55.3081],[17.5379,-55.3172],[17.4237,-55.2272],[17.3101,-55.1371],[17.0038,-55.0443],[16.892,-54.9538],[16.7808,-54.8632],[16.5886,-54.8598],[16.3964,-54.856],[16.0953,-54.7606],[15.9038,-54.7559],[15.7123,-54.7508],[15.5306,-54.6347],[15.2657,-54.6043],[15.0864,-54.4875],[14.8231,-54.456],[14.6461,-54.3384],[14.3844,-54.3057],[14.2097,-54.1875],[13.9496,-54.1537],[13.7772,-54.0348],[13.5327,-54.0338],[13.2881,-54.0322],[13.0879,-53.9881],[12.8882,-53.9437],[12.5716,-53.962],[12.2547,-53.9793],[11.9375,-53.9955],[11.6234,-53.9628]]]}},{"type":"Feature","id":"summer-median-edge","properties":{"edge":"summer","northMonth":"September","southMonth":"March"},"geometry":{"type":"MultiLineString","coordinates":[[[113.649,76.4331],[114.1022,76.4741],[114.4825,76.6699],[114.9885,76.7937],[115.5041,76.9165],[115.9249,76.99],[116.3505,77.0628],[117.0309,77.0865],[117.7137,77.1084],[118.3988,77.1285],[118.9846,77.0875],[119.5666,77.0453],[120.2507,77.0604],[120.9363,77.0737],[121.6232,77.0851],[122.1957,77.0369],[122.7639,76.9875],[123.5576,76.999],[124.3527,77.0081],[125.1487,77.0148],[125.8161,77.0399],[126.486,77.0633],[127.3039,77.1277],[128.13,77.1895],[128.964,77.2486],[129.8056,77.305],[130.6546,77.3587],[131.5107,77.4096],[132.3736,77.4577],[133.243,77.503],[133.5943,77.5051],[134.124,77.4693],[134.6506,77.4325],[135.3494,77.4325],[135.876,77.4693],[136.4057,77.5051],[137.1211,77.5764],[137.8447,77.6458],[138.5763,77.7133],[138.9825,77.8601],[139.5378,77.8896],[140.0957,77.9179],[140.819,77.9034],[141.3402,77.8535],[141.8571,77.8026],[141.9487,77.647],[142.0379,77.4913],[142.319,77.3687],[142.5946,77.2457],[142.6733,77.09],[142.75,76.9343],[143.3984,76.8879],[144.042,76.8399],[144.6808,76.7902],[145.4375,76.6822],[146.1818,76.5721],[147.0115,76.5066],[147.8329,76.4383],[148.646,76.3674],[149.0362,76.2665],[149.4208,76.165],[150.006,76.102],[150.5858,76.0376],[151.1601,75.9718],[151.5209,75.867],[151.8763,75.7618],[152.4333,75.6929],[152.9848,75.6227],[153.5309,75.5513],[153.8636,75.4431],[154.1913,75.3345],[154.8138,75.2517],[155.4292,75.1673],[156.0375,75.0811],[156.4768,74.9557],[156.9087,74.8295],[157.6143,74.7332],[158.3109,74.6347],[158.9984,74.534],[159.6769,74.4311],[159.9454,74.2728],[160.2085,74.1141],[160.4663,73.9552],[160.719,73.7961],[161.0562,73.6454],[161.3871,73.4941],[161.712,73.3424],[162.0309,73.1903],[161.8729,73.0446],[161.7176,72.8989],[161.5651,72.753],[161.9598,72.6517],[162.3499,72.5495],[162.5097,72.3974],[162.6668,72.2452],[162.9862,72.1086],[163.3008,71.9715],[163.2355,71.8545],[163.1711,71.7375],[163.4777,71.6002],[163.6861,71.5643],[164.2157,71.5574],[164.6862,71.5163],[165.1545,71.4739],[165.6207,71.4304],[166.0845,71.3857],[166.5461,71.3398],[167.0054,71.2927],[167.3541,71.3996],[167.7068,71.5059],[168.0984,71.5597],[168.4923,71.6125],[168.8559,71.7166],[169.2237,71.82],[169.7559,71.7969],[170.0612,71.8678],[170.3688,71.9382],[171.0452,71.9725],[171.3586,72.0412],[171.6743,72.1094],[172.2115,72.0792],[172.7031,72.1528],[173.2396,72.1195],[173.7742,72.0848],[174.3065,72.0485],[174.8367,72.0107],[175.3367,72.0772],[175.8653,72.0365],[176.3698,72.1003],[176.8966,72.0566],[177.4209,72.0115],[178.108,72.0197],[178.7958,72.0255],[179.1372,72.0805],[179.4807,72.1349],[-180,72.0825],[-179.5659,72.1883],[-179.1267,72.2931],[-178.6821,72.3968],[-178.2322,72.4996],[-177.6289,72.5995],[-177.0185,72.6975],[-176.4012,72.7936],[-175.9273,72.8909],[-175.4478,72.9871],[-174.9629,73.0821],[-174.4725,73.1759],[-173.943,73.1068],[-173.376,73.1421],[-172.8523,73.07],[-172.4659,73.1093],[-172.0777,73.1477],[-171.3514,73.117],[-170.9605,73.1533],[-170.5679,73.1888],[-170.0557,73.1093],[-169.6623,73.143],[-169.2673,73.1759],[-168.5461,73.1349],[-167.8285,73.0913],[-167.3329,73.0049],[-166.8425,72.9173],[-166.2716,72.932],[-165.7888,72.8418],[-165.3943,72.8668],[-164.9987,72.8911],[-164.5537,72.9659],[-164.2804,73.0542],[-164.0042,73.1421],[-163.7766,73.1785],[-163.195,73.1841],[-163.0879,73.2861],[-162.8697,73.49],[-162.7585,73.5919],[-162.1619,73.5945],[-161.6837,73.4942],[-161.2114,73.3928],[-160.7449,73.2903],[-160.2843,73.1867],[-159.8752,73.2005],[-159.4655,73.2134],[-158.778,73.1375],[-158.3691,73.1481],[-157.9597,73.158],[-157.5206,73.0481],[-157.0872,72.9374],[-156.6595,72.8257],[-156.2374,72.7131],[-155.8376,72.7185],[-155.4375,72.7231],[-154.7894,72.6335],[-154.3911,72.6359],[-153.9927,72.6375],[-153.5932,72.5193],[-153.0398,72.4951],[-152.6501,72.375],[-152.1514,72.3961],[-151.6516,72.4158],[-151.1506,72.4342],[-150.4842,72.4131],[-149.8194,72.3897],[-149.3176,72.4032],[-148.815,72.4155],[-148.3118,72.4264],[-147.9576,72.297],[-147.4484,72.2934],[-146.9395,72.2884],[-146.5272,72.2378],[-146.1173,72.1862],[-145.6121,72.1776],[-145.1074,72.1677],[-144.7824,72.0327],[-144.4024,72.0144],[-144.0231,71.9954],[-143.4711,71.8698],[-143.096,71.8488],[-142.7218,71.8271],[-142.4833,71.8371],[-142.035,71.9305],[-141.7947,71.9396],[-141.4203,71.9152],[-141.0469,71.8902],[-140.5198,71.7559],[-139.9127,71.7356],[-139.307,71.7132],[-138.9329,71.6465],[-138.5615,71.5789],[-138.0253,71.5699],[-137.4896,71.5593],[-136.9545,71.5471],[-136.4203,71.5333],[-135.9444,71.4864],[-135.4709,71.4383],[-135,71.3889],[-134.4529,71.3631],[-133.9073,71.3356],[-133.3634,71.3064],[-133.1298,71.3041],[-132.6579,71.3361],[-132.1844,71.3668],[-131.8202,71.4358],[-131.4531,71.5041],[-130.9734,71.5316],[-130.4922,71.5578],[-130.2165,71.7013],[-129.7188,71.7629],[-129.4337,71.9053],[-128.9275,71.9648],[-128.7676,72.0728],[-128.6056,72.1807],[-128.059,72.3126],[-127.8904,72.4199],[-127.7197,72.5272],[-127.1896,72.582],[-126.8699,72.7206],[-126.3311,72.773],[-126.0007,72.9103],[-125.4532,72.9603],[-125.2833,73.0282]],[[-87.6722,70.106],[-87.6847,70.0004],[-87.6971,69.8949],[-88.1623,69.8479],[-88.3198,69.7967],[-88.4846,69.6399],[-88.3463,69.4803],[-88.5083,69.3236],[-88.4398,69.2439]],[[-76.9002,76.7374],[-76.9348,76.8219],[-76.5413,76.9664],[-76.139,77.1104],[-75.7275,77.2537],[-75.3066,77.3964],[-75.3581,77.5661],[-74.9221,77.7083],[-74.4759,77.8498],[-74.0191,77.9906],[-73.5514,78.1306],[-73.5658,78.2157]],[[-21.2362,73.2216],[-21.3262,73.0685],[-21.0634,72.8699],[-20.8304,72.8392],[-20.1533,72.9138],[-19.8125,72.9502],[-19.46,72.8176],[-19.1197,72.8528],[-18.4349,72.9214],[-18.1111,73.076],[-17.7812,73.2302],[-17.4452,73.3839],[-17.1027,73.537],[-16.7538,73.6897],[-16.3139,73.8375],[-15.8657,73.9844],[-15.4092,74.1304],[-14.9441,74.2755],[-14.5467,74.4379],[-14.1408,74.5996],[-13.7262,74.7605],[-13.3027,74.9208],[-12.87,75.0802],[-12.4279,75.2388],[-11.9761,75.3967],[-11.366,75.5377],[-10.7438,75.6771],[-10.1093,75.8148],[-9.5931,75.9673],[-9.0656,76.1186],[-8.5263,76.2688],[-7.975,76.4178],[-7.4115,76.5656],[-6.9077,76.7155],[-6.3924,76.8644],[-5.9171,77.038],[-5.4288,77.2109],[-4.9271,77.3828],[-4.8566,77.519],[-4.7845,77.6553],[-4.2128,77.8267],[-3.6248,77.997],[-3.0197,78.166],[-2.397,78.3337],[-1.8941,78.5172],[-1.3748,78.6998],[-0.8384,78.8815],[-0.1418,79.0444],[0.5758,79.2057],[1.3152,79.3652],[2.0772,79.523],[2.2546,79.6568],[2.4366,79.7905],[2.9317,79.9216],[3.4399,80.0519],[3.7723,80.1024],[4.5928,80.1733],[5.4252,80.2422],[6.2345,80.2554],[7.0458,80.2666],[8.1072,80.3791],[9.1936,80.4883],[10.3048,80.594],[11.441,80.6961],[12.6749,80.7642],[13.9266,80.8279],[15.1952,80.8873],[16.2052,80.9548],[17.2301,81.0195],[18.2695,81.0813],[19.3232,81.1401],[20.1906,81.0344],[21.2864,81.0275],[22.1194,80.9173],[22.8835,80.9259],[23.649,80.9328],[24.8938,80.8439],[25.6533,80.8466],[26.4131,80.8478],[27.165,80.7264],[28.2102,80.6989],[28.9264,80.5739],[29.8882,80.5782],[30.8505,80.5798],[31.6398,80.5329],[32.4211,80.4841],[33.1942,80.4336],[33.9591,80.3814],[34.5742,80.2455],[35.1723,80.1086],[36.1193,80.058],[36.6849,79.9185],[37.606,79.8637],[38.0365,79.8732],[38.6598,79.9244],[39.2894,79.9744],[39.6442,80.1338],[40.0106,80.2928],[40.6365,80.4164],[41.2787,80.5388],[41.4531,80.6938],[41.6335,80.8487],[42.5737,80.9328],[43.0251,81.0886],[44.0037,81.169],[44.5018,81.17],[45.4961,81.1318],[46.4815,81.0909],[47.2026,81.0108]],[[61.9553,80.1316],[62.4592,80.0248],[63.2504,79.9537],[64.0303,79.8808],[64.7989,79.8061],[65.2565,79.6951],[65.7042,79.5836],[66.6075,79.4791],[67.4926,79.3721],[67.9321,79.1725],[68.3556,78.9723],[68.4047,78.8021],[68.8219,78.8916],[69.2459,78.9806],[69.9439,79.0875],[70.6557,79.1928],[71.2883,79.3475],[71.9395,79.501],[72.5931,79.4825],[73.2443,79.4626],[74.3806,79.5228],[75.2113,79.48],[76.0351,79.4351],[77.1826,79.4851],[77.8229,79.4558],[78.4595,79.4251],[78.8049,79.3829],[78.6901,79.2137],[78.9693,79.0866],[79.242,78.9593],[80.2176,78.829],[80.9698,78.7713],[81.7142,78.7117],[82.2224,78.7801],[82.7368,78.8476],[83.8448,78.8728],[84.4007,78.8839],[84.7557,78.728],[85.054,78.6791],[85.8949,78.6381],[86.6981,78.7024],[87.2607,78.6542],[87.8184,78.605],[88.3789,78.5009],[88.7982,78.3683],[89.2079,78.2351],[89.2223,78.0197],[89.4862,77.9127],[89.7454,77.8055],[89.4974,77.6437],[90,77.4828],[90.4897,77.3211],[90.971,77.2122],[91.4441,77.1025],[92.1476,76.99],[92.8388,76.8757],[93.5615,76.9203],[94.0183,76.8596],[94.4708,76.7981],[95.4069,76.7796],[95.8501,76.7156],[96.2889,76.6509],[97.0094,76.6856],[97.2701,76.7322],[97.5946,76.885],[97.8614,76.931],[98.6014,76.9611],[99.2678,76.883],[99.4623,76.8213],[99.577,76.6535],[99.4053,76.5785]],[[-100.9391,70.4072],[-100.4456,70.3847],[-99.9533,70.3607],[-99.7452,70.2656],[-99.5391,70.1702],[-99.2318,70.1874],[-98.9726,70.3086],[-98.8661,70.4212],[-98.7582,70.5339],[-98.9643,70.6303],[-99.1726,70.7264],[-99.2759,70.9355],[-99.4891,71.0314],[-99.7045,71.127],[-99.6252,71.2927],[-99.7486,71.3666]],[[-97.0869,74.8742],[-96.9234,74.7447],[-97.0999,74.6851],[-97.6147,74.6945]],[[-2.9609,-70.0902],[-2.9985,-69.9774],[-3.0356,-69.8645],[-3.5562,-69.742],[-4.0704,-69.6179],[-4.4804,-69.5324],[-4.887,-69.4459],[-5.4252,-69.4663],[-5.9645,-69.4849],[-6.4108,-69.5429],[-6.8598,-69.5998],[-7.3112,-69.6554],[-7.7652,-69.7098],[-8.2216,-69.763],[-8.6804,-69.8149],[-9.1416,-69.8655],[-9.6052,-69.9149],[-10.0711,-69.9629],[-10.3637,-70.0967],[-10.8357,-70.1427],[-11.3099,-70.1873],[-11.7863,-70.2306],[-12.2648,-70.2726],[-12.5771,-70.4025],[-13.0616,-70.4423],[-13.3821,-70.5708],[-13.8724,-70.6083],[-14.0637,-70.7082],[-14.257,-70.8079],[-14.8135,-70.9153],[-15.0129,-71.0142],[-15.2145,-71.1129],[-15.7226,-71.1452],[-16.0736,-71.2688],[-16.5873,-71.2986],[-16.8345,-71.4315],[-17.0853,-71.564],[-17.418,-71.6493],[-17.7538,-71.7339],[-18.0156,-71.8653],[-18.2813,-71.9963],[-18.1261,-72.0912],[-17.8105,-72.2805],[-17.3762,-72.3618]],[[-20.556,-72.3885],[-20.9313,-72.265],[-21.46,-72.162],[-21.9824,-72.0576],[-22.0256,-71.8902],[-22.3801,-71.7639],[-22.4189,-71.5965],[-22.765,-71.4696],[-22.7996,-71.3023],[-23.2901,-71.1944],[-23.7749,-71.0853],[-24.1022,-70.956],[-24.4251,-70.8262],[-24.8938,-70.7141],[-25.3569,-70.6008],[-25.56,-70.5686],[-26.0625,-70.5708],[-26.464,-70.6719],[-26.9692,-70.6715],[-27.1703,-70.6374],[-27.4665,-70.5022],[-27.6648,-70.4676],[-28.1119,-70.4307],[-28.5571,-70.3926],[-29.1406,-70.2844],[-29.5468,-70.1857],[-29.9488,-70.0861],[-30.3467,-69.9855],[-30.7405,-69.884],[-31.2967,-69.7686],[-31.8463,-69.6514],[-32.3675,-69.5667],[-32.8842,-69.4804],[-33.3965,-69.3925],[-33.7485,-69.3101],[-33.952,-69.2168],[-34.1535,-69.1234],[-34.326,-69.0815],[-34.7873,-69.0583],[-35.2476,-69.0338],[-35.7067,-69.008],[-36.1646,-68.9809],[-36.3317,-68.9369],[-36.6849,-68.7963],[-37.0332,-68.6549],[-37.3579,-68.565],[-37.6797,-68.4744],[-38.1402,-68.3896],[-38.5971,-68.3034],[-38.8946,-68.2626],[-39.1909,-68.2213],[-39.4861,-68.1793],[-39.7801,-68.1369],[-40.2247,-68.046],[-40.6656,-67.9539],[-41.1121,-67.8081],[-41.3634,-67.6918],[-41.612,-67.575],[-41.858,-67.4579],[-41.9444,-67.3286],[-42.0298,-67.1992],[-42.2482,-67.0724],[-42.4641,-66.9454],[-42.603,-66.8954],[-42.9428,-66.8221],[-43.2803,-66.748],[-43.6861,-66.5955],[-43.8895,-66.4666],[-44.0906,-66.3375],[-44.2223,-66.2861],[-44.612,-66.2355],[-44.9356,-66.1577],[-45.2569,-66.0793],[-45.5761,-66.0001],[-45.8932,-65.9203],[-46.2702,-65.8131],[-46.6438,-65.705],[-46.8882,-65.5977],[-47.0052,-65.4919],[-47.1211,-65.3861],[-47.2409,-65.3321],[-47.5434,-65.2488],[-47.8439,-65.1648],[-48.1934,-65.0009],[-48.4166,-64.8394],[-48.6368,-64.6776],[-48.6063,-64.4706],[-48.7106,-64.3639],[-48.8141,-64.2571],[-48.6723,-64.1054],[-48.7671,-63.9472],[-48.6274,-63.7957],[-48.7831,-63.6617],[-48.9372,-63.5276],[-49.2576,-63.3621],[-49.5305,-63.275],[-49.8016,-63.1874],[-50.153,-63.2253],[-50.4836,-63.1596],[-50.8125,-63.0931],[-51.1397,-63.0257],[-51.4652,-62.9575],[-51.789,-62.8885],[-52.1484,-62.955],[-52.5097,-63.0205],[-52.8727,-63.0849],[-53.2376,-63.1483],[-53.6042,-63.2107],[-53.9726,-63.272],[-54.3253,-63.3641],[-54.6805,-63.4552],[-55.0382,-63.5454],[-55.3984,-63.6346],[-55.6946,-63.6363],[-55.9909,-63.6374],[-56.3099,-63.6885],[-56.6303,-63.7388],[-56.7683,-63.7789],[-56.9552,-63.9201],[-56.9342,-64.0014]],[[-72.4587,-69.1666],[-72.6211,-69.1067],[-72.943,-68.9865],[-73.2612,-68.8656],[-73.459,-68.8869],[-73.7979,-69.0003],[-73.8821,-69.1642],[-74.2281,-69.2768],[-74.3169,-69.4405],[-74.493,-69.4965]],[[-76.0436,-70.1005],[-76.3503,-70.1454],[-76.6585,-70.1897],[-76.9056,-70.3245],[-77.1561,-70.459],[-77.5443,-70.5648],[-77.9368,-70.6697],[-77.9292,-70.8605],[-77.9213,-71.0515],[-78.0755,-71.177],[-78.2317,-71.3024],[-78.3664,-71.4645],[-78.8519,-71.4574],[-79.3369,-71.4489],[-79.7267,-71.3956],[-80.1141,-71.3415],[-80.7109,-71.3357],[-81.3072,-71.328],[-81.7705,-71.3501],[-82.219,-71.4081],[-82.6703,-71.465],[-83.1385,-71.4835],[-83.6208,-71.4635],[-84.1019,-71.4423],[-84.6151,-71.3078],[-85.1207,-71.1719],[-85.3894,-71.0287],[-85.6539,-70.8852],[-85.9144,-70.7414],[-86.3956,-70.6021],[-86.8698,-70.4615],[-87.3214,-70.4317],[-87.7717,-70.4008],[-88.2308,-70.2566],[-88.7843,-70.249],[-89.3372,-70.2396],[-89.8896,-70.2284],[-90.4413,-70.2154],[-90.9922,-70.2006],[-91.5422,-70.184],[-92.1146,-70.1778],[-92.6865,-70.1697],[-93.2579,-70.1596],[-93.8287,-70.1476],[-94.3987,-70.1336],[-94.9856,-70.1298],[-95.5722,-70.1238],[-96.1584,-70.1158],[-96.744,-70.1058],[-97.329,-70.0938],[-97.9132,-70.0797],[-98.27,-70.1379],[-98.6289,-70.1954],[-99.0758,-70.197],[-99.5227,-70.1974],[-99.9697,-70.1966],[-100.3345,-70.2505],[-100.7014,-70.3035],[-101.1506,-70.2996],[-101.5996,-70.2946],[-102.0484,-70.2883],[-102.4204,-70.3376],[-102.7944,-70.3861],[-103.3616,-70.3802],[-103.9283,-70.3725],[-104.4703,-70.4808],[-104.9314,-70.479],[-105.3924,-70.476],[-105.9454,-70.5796],[-106.3007,-70.5844],[-106.6561,-70.5884],[-107.0029,-70.71],[-107.3608,-70.7126],[-107.7188,-70.7145],[-108.291,-70.8106],[-108.8663,-70.7864],[-109.44,-70.7604],[-110.0797,-70.6844],[-110.4638,-70.5975],[-110.8445,-70.5097],[-111.0536,-70.483],[-111.5519,-70.4983],[-111.9269,-70.6096],[-112.2822,-70.602],[-112.6372,-70.5937],[-113.2283,-70.6732],[-113.6875,-70.648],[-114.1455,-70.6215],[-114.7435,-70.6958],[-115.2011,-70.6665],[-115.6573,-70.6361],[-116.2614,-70.7051],[-116.8175,-70.655],[-117.3706,-70.6031],[-117.7743,-70.6175],[-118.1786,-70.6309],[-118.7271,-70.5747],[-119.2723,-70.5167],[-119.8843,-70.573],[-120.2322,-70.5492],[-120.5792,-70.5246],[-121.0024,-70.6149],[-121.3496,-70.5888],[-121.6958,-70.562],[-122.0765,-70.483],[-122.3004,-70.3916],[-122.5222,-70.2999],[-122.7087,-70.2596],[-123.1998,-70.241],[-123.6285,-70.3246],[-124.0583,-70.2724],[-124.4858,-70.2191],[-124.8836,-70.2167],[-125.2812,-70.2135],[-125.742,-70.1325],[-126.1989,-70.0502],[-126.652,-69.9668],[-127.1309,-69.9368],[-127.6083,-69.9055],[-128.1026,-69.8204],[-128.5926,-69.7339],[-129.031,-69.8035],[-129.5018,-69.7668],[-129.9441,-69.8339],[-130.4139,-69.7946],[-130.8598,-69.8593],[-131.3283,-69.8174],[-131.7661,-69.9499],[-132.2098,-70.0813],[-132.6595,-70.2116],[-133.1187,-70.3055],[-133.5823,-70.3981],[-134.0504,-70.4895],[-134.4824,-70.6104],[-134.9199,-70.7302],[-135.3629,-70.849],[-135.8115,-70.9667],[-136.2189,-70.9908],[-136.6273,-71.014],[-137.0162,-71.0983],[-137.4087,-71.1818],[-137.8048,-71.2644],[-138.221,-71.2839],[-138.6382,-71.3024],[-139.0679,-71.3729],[-139.5009,-71.4423],[-139.9841,-71.3763],[-140.33,-71.4196],[-140.6774,-71.4622],[-141.3402,-71.44],[-141.6903,-71.4806],[-142.042,-71.5206],[-142.5176,-71.4479],[-143.0357,-71.4789],[-143.5061,-71.4035],[-143.8601,-71.4399],[-144.2155,-71.4756],[-144.8729,-71.4405],[-145.3273,-71.4955],[-145.7843,-71.5495],[-146.441,-71.5086],[-146.8024,-71.5391],[-147.165,-71.569],[-147.6193,-71.483],[-148.1449,-71.4993],[-148.5927,-71.4109],[-149.1169,-71.4243],[-149.5582,-71.3335],[-150.0808,-71.3441],[-150.5153,-71.251],[-151.036,-71.2588],[-151.3618,-71.1455],[-151.6836,-71.0316],[-152.049,-70.9678],[-152.4119,-70.9033],[-152.7752,-70.7544],[-153.1329,-70.6047],[-153.5356,-70.5882],[-153.9375,-70.5708],[-154.2863,-70.5025],[-154.6326,-70.4335],[-154.9831,-70.4474],[-155.3341,-70.4606],[-155.5745,-70.3741],[-155.8126,-70.2873],[-156.3959,-70.2112],[-156.6284,-70.1233],[-156.8588,-70.035],[-157.4054,-70.0732],[-157.9541,-70.1096],[-158.4429,-70.0957],[-158.931,-70.0804],[-159.5147,-70.1358],[-160.1016,-70.1892],[-160.6917,-70.2406],[-161.2849,-70.2899],[-161.822,-70.2978],[-162.3595,-70.304],[-162.8973,-70.3086],[-163.3912,-70.3394],[-163.8866,-70.3689],[-164.3835,-70.3969],[-164.8818,-70.4235],[-165.4258,-70.3172],[-165.7755,-70.3089],[-166.125,-70.2999],[-166.4443,-70.1724],[-166.791,-70.162],[-167.1372,-70.1508],[-167.6609,-70.0376],[-168.2034,-70.0645],[-168.7474,-70.0896],[-169.2927,-70.1129],[-169.8393,-70.1345],[-170.387,-70.1543],[-170.9358,-70.1724],[-171.5019,-70.202],[-172.0698,-70.2298],[-172.6391,-70.2557],[-173.21,-70.2796],[-173.7822,-70.3016],[-174.3955,-70.338],[-175.011,-70.3723],[-175.6286,-70.4043],[-176.2483,-70.434],[-176.8698,-70.4615],[-177.3057,-70.5438],[-177.7454,-70.625],[-178.1889,-70.7051],[-178.4151,-70.7074],[-178.8701,-70.6735],[-179.3233,-70.6384],[180,-70.6398],[179.548,-70.6766],[179.0942,-70.7122],[178.6361,-70.7841],[178.1745,-70.8548],[177.7094,-70.9242],[177.2409,-70.9925],[176.769,-71.0595],[176.7559,-71.1343],[176.9627,-71.2881],[176.9502,-71.3629],[176.6891,-71.5086],[176.2017,-71.5741],[175.9314,-71.7187],[175.4356,-71.7823],[175.2865,-71.8915],[175.1355,-72.0006],[174.6061,-72.1369],[174.4248,-72.3203],[174.2396,-72.5037],[173.8264,-72.6042],[173.4084,-72.7038],[172.8434,-72.8352],[172.6233,-72.751],[172.9374,-72.6112],[172.9682,-72.5365],[172.8904,-72.4199],[172.8137,-72.3034],[172.3892,-72.1349],[172.317,-72.0182],[172.2457,-71.9015],[171.8019,-71.8063],[171.6341,-71.647],[171.1998,-71.5504],[171.0396,-71.3906],[170.7109,-71.3357],[170.3842,-71.2803],[170.0054,-71.107],[169.6848,-71.0503],[169.3662,-70.9931],[169.1405,-70.9791],[168.6449,-71.0238],[168.4862,-71.0898]],[[165.7189,-70.5356],[165.5297,-70.4808],[165.5054,-70.3628],[165.4814,-70.2449],[165.5914,-70.1001],[165.7785,-70.0008],[165.9638,-69.9013],[166.0162,-69.8288],[165.9117,-69.6659],[165.5497,-69.5568],[165.4504,-69.3937],[165.0957,-69.2837],[165.0753,-69.1661],[165.0552,-69.0486],[164.763,-68.866],[164.7449,-68.7485],[164.727,-68.6311],[164.4596,-68.5656],[164.1938,-68.4997],[163.9166,-68.3159],[163.5596,-68.2386],[163.2052,-68.1605],[162.9409,-67.9752],[162.5931,-67.8958],[162.2479,-67.8156],[161.9958,-67.6289],[161.7491,-67.5591],[161.5039,-67.4889],[161.4437,-67.3249],[161.202,-67.2542],[160.962,-67.1832],[160.7278,-66.9948],[160.492,-66.9231],[160.2577,-66.851],[160.2081,-66.6868],[159.9218,-66.567],[159.9301,-66.4503],[159.9384,-66.3336],[159.7212,-66.1442],[159.7304,-66.0276],[159.7395,-65.9111],[159.465,-65.7907],[159.4231,-65.6269],[159.1218,-65.5404],[158.8228,-65.4532],[158.3296,-65.3726],[157.9696,-65.352],[157.6103,-65.3304],[157.2176,-65.3418],[156.8245,-65.3521],[156.5471,-65.3422],[156.2698,-65.3318],[155.9929,-65.3208],[155.7161,-65.3092],[155.4397,-65.2971],[155.1635,-65.2844],[154.8207,-65.2444],[154.4789,-65.2036],[154.1384,-65.162],[153.7991,-65.1195],[153.4609,-65.0762],[153.124,-65.032],[152.7883,-64.987],[152.4539,-64.9412],[152.1207,-64.8946],[151.7344,-64.8902],[151.3482,-64.8848],[150.9622,-64.8783],[150.5764,-64.8706],[150.2551,-64.9621],[149.8683,-64.9524],[149.5433,-65.0422],[149.1555,-65.0305],[148.8268,-65.1186],[148.4382,-65.1049],[148.05,-65.09],[147.569,-65.1361],[147.0861,-65.1805],[146.6015,-65.2232],[146.2128,-65.203],[145.8248,-65.1818],[145.4824,-65.2617],[145.0942,-65.2385],[144.7486,-65.3165],[144.3602,-65.2912],[144.0115,-65.3674],[143.6231,-65.3399],[143.2714,-65.4143],[142.8831,-65.3847],[142.4959,-65.3541],[142.1096,-65.3223],[141.7244,-65.2895],[141.3677,-65.3589],[140.983,-65.324],[140.6237,-65.3915],[140.2395,-65.3545],[139.8778,-65.4201],[139.4944,-65.381],[139.1302,-65.4446],[138.7476,-65.4034],[138.5061,-65.4619],[138.2633,-65.52],[137.7621,-65.5309],[137.5169,-65.5877],[137.2704,-65.6441],[136.8882,-65.5977],[136.5141,-65.6544],[136.1332,-65.606],[135.9454,-65.6334]],[[129.3856,-66.1508],[129.1998,-66.1171],[129.2257,-66.0133],[129.2768,-65.8059],[129.4278,-65.7074],[129.5776,-65.6087],[129.4885,-65.4483],[129.3763,-65.3915],[129.017,-65.324],[128.6323,-65.3589],[128.2756,-65.2895],[127.9211,-65.2191],[127.5686,-65.1479],[127.2182,-65.0757],[126.9571,-65.1129],[126.6952,-65.1495],[126.2069,-65.1186],[125.8022,-65.1969],[125.3948,-65.274],[125.0783,-65.2776],[124.7618,-65.2804],[124.4224,-65.3337],[124.0815,-65.3861],[124.1334,-65.5492],[124.1359,-65.6819],[124.1385,-65.8147],[124.253,-65.9165],[124.3685,-66.0182]],[[123.8401,-65.8971],[123.6403,-65.7745],[123.4174,-65.7028],[123.1957,-65.6307],[123.0463,-65.6709],[122.8698,-65.7619],[122.692,-65.8527],[122.6375,-65.9546]],[[120.4372,-66.6281],[120.2296,-66.6335],[119.8828,-66.5426],[119.7907,-66.4785],[119.7676,-66.3137],[119.9938,-66.1762],[119.9363,-66.0619],[119.8793,-65.9477],[119.7003,-65.8198],[119.4894,-65.7419],[119.28,-65.6637],[118.951,-65.5709],[118.6246,-65.4773],[118.3008,-65.383],[117.9795,-65.288],[117.6607,-65.1923],[117.3445,-65.0958],[117.0309,-64.9987],[116.7197,-64.9009],[116.411,-64.8024],[116.0638,-64.8344],[115.7157,-64.8654],[115.4077,-64.8467],[115.1002,-64.8273],[114.6585,-64.8875],[114.2146,-64.9462],[113.7686,-65.0035],[113.3012,-65.0095],[112.8337,-65.0138],[112.4369,-65.0572],[112.0388,-65.0994],[111.6393,-65.1405],[111.1874,-65.0573],[110.8415,-65.0871],[110.4948,-65.1161],[110.1472,-65.1442],[109.7595,-65.1252],[109.3723,-65.1052],[109.0237,-65.1304],[108.6744,-65.1547],[108.3243,-65.1781],[107.884,-65.0841],[107.6086,-65.0827],[107.3332,-65.0807],[107.0645,-64.9621],[106.7905,-64.9591],[106.5167,-64.9554],[106.0876,-64.8557],[105.815,-64.8507],[105.5426,-64.8451],[105.2852,-64.7231],[104.9314,-64.7259],[104.5775,-64.7278],[104.078,-64.7823],[103.7848,-64.8889],[104.0362,-65.0138],[103.9094,-65.1029],[103.7816,-65.1918]],[[103.1509,-65.0288],[103.0723,-64.8857],[102.9301,-64.7867],[102.7891,-64.6875],[102.5473,-64.5605],[102.178,-64.5202],[101.941,-64.3922],[101.6751,-64.3788],[101.4095,-64.3649],[101.0127,-64.2496],[100.7489,-64.2344],[100.4854,-64.2187],[100.3199,-64.2319],[100.0178,-64.3299],[99.8513,-64.3425],[99.5873,-64.325],[99.3236,-64.3069],[99.1302,-64.2463]],[[97.4424,-64.5748],[97.336,-64.5068],[96.9776,-64.4524],[96.769,-64.3156],[96.3402,-64.3001],[95.9119,-64.2833],[95.5763,-64.2979],[95.2403,-64.3117],[94.8526,-64.3511],[94.4636,-64.3893],[94.0735,-64.4264],[93.8311,-64.5071],[93.587,-64.5874],[93.1656,-64.6348],[92.7426,-64.6809],[92.4147,-64.8342],[92.1595,-64.8752],[91.9034,-64.9158],[91.741,-65.065],[91.3079,-65.1066],[90.8733,-65.1468],[90.5256,-65.2221],[90.1758,-65.2966],[89.8241,-65.3211],[89.4717,-65.3447],[89.1186,-65.3674],[88.7585,-65.5118],[88.4015,-65.5449]],[[88.1265,-65.652],[88.0435,-65.5772],[87.6952,-65.4981],[87.5181,-65.4951],[87.1553,-65.5617],[87.0529,-65.6702],[86.9495,-65.7786],[86.7603,-65.8481]],[[86.2218,-65.8346],[86.2453,-65.6876],[86.1741,-65.5749],[86.1035,-65.4623],[85.927,-65.4572],[85.5696,-65.4708],[85.2118,-65.4834],[84.8537,-65.4951],[84.3955,-65.5511],[83.9351,-65.6056],[83.4566,-65.6085],[82.9781,-65.6096],[82.4995,-65.6092],[81.9705,-65.5793],[81.6444,-65.4855],[81.8699,-65.3504],[81.7209,-65.2672],[81.3738,-65.2455],[81.1004,-65.2651],[80.8265,-65.2841],[80.5958,-65.4174],[80.2176,-65.4654],[79.9817,-65.5977],[79.5994,-65.6441],[79.3583,-65.7755],[78.972,-65.8201],[78.7255,-65.9505],[78.3351,-65.9934],[78.0832,-66.1227],[77.7971,-66.1357],[77.5107,-66.148],[77.074,-66.2595],[76.6966,-66.262],[76.3191,-66.2634],[76.0752,-66.3533],[75.8295,-66.4428],[75.3364,-66.4684],[74.8422,-66.4922],[74.5007,-66.5698],[74.1569,-66.6466],[73.684,-66.6309],[73.2117,-66.6137],[72.8563,-66.5706],[72.6184,-66.5024],[72.3818,-66.4339],[72.2062,-66.4115],[71.7984,-66.4361],[71.6233,-66.4129],[71.3907,-66.3428],[71.1595,-66.2723],[70.8135,-66.2242],[70.3523,-66.1977],[69.8922,-66.1696],[69.5722,-66.2005],[69.2513,-66.2307],[68.792,-66.1991],[68.334,-66.166],[67.8588,-66.2479],[67.5701,-66.24],[67.2817,-66.2316],[66.9703,-66.3389],[66.6808,-66.3293],[66.3916,-66.319],[65.9066,-66.3944],[65.617,-66.3826],[65.3277,-66.3702],[65.0054,-66.4732],[64.5923,-66.4771],[64.2653,-66.5785],[63.8501,-66.5803],[63.5183,-66.68],[63.1014,-66.6796],[62.7649,-66.7776],[62.3461,-66.7751],[62.132,-66.856],[61.9164,-66.9366],[61.7378,-67.0671],[61.6863,-67.1824],[61.6343,-67.2977],[61.7578,-67.3654]],[[44.3839,-67.5159],[44.0429,-67.4879],[43.7695,-67.4859],[43.7576,-67.6955],[43.9584,-67.8282]],[[43.1391,-67.6629],[42.6543,-67.6824],[42.2475,-67.623],[41.843,-67.5626],[41.5609,-67.6089],[41.2776,-67.6546],[41.389,-67.815],[41.4367,-67.9476],[41.485,-68.0802],[41.646,-68.1758],[41.8084,-68.2713]],[[40.9895,-68.0943],[40.6444,-68.0585],[40.3118,-67.9697],[39.982,-67.8802],[39.6919,-67.923],[39.4007,-67.9652],[38.8448,-67.9437],[38.5517,-67.9844],[38.2574,-68.0245],[37.8577,-67.9533],[37.4238,-67.9852],[37.0276,-67.9119],[36.5935,-67.9414],[36.201,-67.866],[35.9042,-67.9015],[35.6065,-67.9365],[35.3313,-67.9191]],[[32.9205,-68.7918],[32.7106,-68.708],[32.5025,-68.6241],[32.1671,-68.5696],[31.8334,-68.5144],[31.6608,-68.5535],[31.6477,-68.6875],[31.6345,-68.8216],[31.7532,-68.9264],[31.8731,-69.0311]],[[26.709,-69.6692],[26.3737,-69.6024],[26.0876,-69.5685],[25.8899,-69.768],[25.9819,-69.9187]],[[18.536,-69.5226],[18.8384,-69.4868],[19.1703,-69.3677],[19.1011,-69.2973],[18.7661,-69.1805],[18.3026,-69.1572],[17.9745,-69.0388],[17.5151,-69.0133],[17.1938,-68.8934],[16.8674,-68.8905],[16.541,-68.8869],[16.1443,-68.9288],[15.8741,-68.9954],[15.6021,-69.0616],[15.5577,-69.1433]],[[13.7294,-69.3129],[13.5775,-69.2493],[13.7318,-69.1593],[14.0109,-69.0963],[14.2884,-69.0329],[14.5642,-68.969],[14.8382,-68.9046],[14.7855,-68.8327],[14.4831,-68.7075],[13.9617,-68.7171],[13.44,-68.725],[13.0408,-68.7591],[12.6403,-68.7922],[12.1596,-68.8685],[11.6754,-68.9434],[11.3099,-69.046],[10.9408,-69.1478],[10.568,-69.2489],[10.4375,-69.409],[10.476,-69.4824],[10.7643,-69.6153],[10.9948,-69.6378]]]}}]}
